{"citylist":
    [{"id":"37","parentId":"0","areaCode":"37","name":"山东省"},
 {"id":"3701","parentId":"37","areaCode":"3701","name":"济南市"},{"id":"370303","parentId":"3703","areaCode":"370303","name":"张店区"},{"id":"370499001","parentId":"370499","areaCode":"370499001","name":"兴仁街道"},{"id":"371502","parentId":"3715","areaCode":"371502","name":"东昌府区"},{"id":"371502001","parentId":"371502","areaCode":"371502001","name":"古楼街道"},{"id":"371521001","parentId":"371521","areaCode":"371521001","name":"博济桥街道"},{"id":"371522001","parentId":"371522","areaCode":"371522001","name":"莘州街道"},{"id":"371523001","parentId":"371523","areaCode":"371523001","name":"振兴街道"},{"id":"371526001","parentId":"371526","areaCode":"371526001","name":"鱼邱湖街道"},{"id":"371581001","parentId":"371581","areaCode":"371581001","name":"青年路街道"},{"id":"370112001","parentId":"370112","areaCode":"370112001","name":"山大路街道 "},{"id":"370125001","parentId":"370125","areaCode":"370125001","name":"济阳街道"},{"id":"370902001","parentId":"370902","areaCode":"370902001","name":"岱庙街道"},{"id":"370923001","parentId":"370923","areaCode":"370923001","name":"州城街道"},{"id":"370982001","parentId":"370982","areaCode":"370982001","name":"青云街道"},{"id":"371328001","parentId":"371328","areaCode":"371328001","name":"蒙阴街道"},{"id":"370404001","parentId":"370404","areaCode":"370404001","name":"坛山街道"},{"id":"371525001","parentId":"371525","areaCode":"371525001","name":"清泉街道"},{"id":"371599001","parentId":"371599","areaCode":"371599001","name":"东城街道"},{"id":"370883001","parentId":"370883","areaCode":"370883001","name":"钢山街道"},{"id":"371482001","parentId":"371482","areaCode":"371482001","name":"市中街道"},{"id":"370403001","parentId":"370403","areaCode":"370403001","name":"临城街道办事处"},
 {"id":"370405001","parentId":"370405","areaCode":"370405001","name":"运河街道"},{"id":"370102","parentId":"3701","areaCode":"370102","name":"历下区"},{"id":"370102001","parentId":"370102","areaCode":"370102001","name":"解放路街道"},{"id":"370983001","parentId":"370983","areaCode":"370983001","name":"新城街道"},{"id":"370724001","parentId":"370724","areaCode":"370724001","name":"城关街道"},{"id":"370781001","parentId":"370781","areaCode":"370781001","name":"王府街道"},{"id":"370786001","parentId":"370786","areaCode":"370786001","name":"奎聚街道"},{"id":"371002","parentId":"3710","areaCode":"371002","name":"环翠区"},{"id":"371082001","parentId":"371082","areaCode":"371082001","name":"港湾街道"},{"id":"371621001","parentId":"371621","areaCode":"371621001","name":"孙武街道"},{"id":"370602","parentId":"3706","areaCode":"370602","name":"芝罘区"},{"id":"370611001","parentId":"370611","areaCode":"370611001","name":"清洋街道"},{"id":"370613001","parentId":"370613","areaCode":"370613001","name":"黄海路街道"},{"id":"371722001","parentId":"371722","areaCode":"371722001","name":"南城街道"},{"id":"370202001","parentId":"370202","areaCode":"370202001","name":"香港中路街道"},{"id":"370211001","parentId":"370211","areaCode":"370211001","name":"黄岛街道"},{"id":"370991001","parentId":"370991","areaCode":"370991001","name":"大津口乡"},{"id":"370214001","parentId":"370214","areaCode":"370214001","name":"城阳街道"},{"id":"370281001","parentId":"370281","areaCode":"370281001","name":"阜安街道"},{"id":"370282001","parentId":"370282","areaCode":"370282001","name":"环秀街道"},{"id":"370307100","parentId":"370307","areaCode":"370307100","name":"萌水镇"},{"id":"370283001","parentId":"370283","areaCode":"370283001","name":"东阁街道"},{"id":"370285001","parentId":"370285","areaCode":"370285001","name":"水集街道"},{"id":"370902","parentId":"3709","areaCode":"370902","name":"泰山区"},{"id":"370911001","parentId":"370911","areaCode":"370911001","name":"粥店街道"},{"id":"370921001","parentId":"370921","areaCode":"370921001","name":"文庙街道"},{"id":"371302","parentId":"3713","areaCode":"371302","name":"兰山区"},{"id":"371311001","parentId":"371311","areaCode":"371311001","name":"罗庄办事处"},{"id":"371312001","parentId":"371312","areaCode":"371312001","name":"九曲街道"},{"id":"371321001","parentId":"371321","areaCode":"371321001","name":"界湖街道"},{"id":"371324001","parentId":"371324","areaCode":"371324001","name":"卞庄街道"},{"id":"371326001","parentId":"371326","areaCode":"371326001","name":"平邑街道"},{"id":"371327001","parentId":"371327","areaCode":"371327001","name":"十字路街道"},{"id":"371398001","parentId":"371398","areaCode":"371398001","name":"芝麻墩街道"},{"id":"370402","parentId":"3704","areaCode":"370402","name":"市中区"},{"id":"370213001","parentId":"370213","areaCode":"370213001","name":"振华路街道"},{"id":"370686001","parentId":"370686","areaCode":"370686001","name":"翠屏街道"},{"id":"370690003","parentId":"370690","areaCode":"370690003","name":"福莱山街道"},{"id":"370691001","parentId":"370691","areaCode":"370691001","name":"马山街道"},{"id":"370802","parentId":"3708","areaCode":"370802","name":"市中区"},{"id":"370802001","parentId":"370802","areaCode":"370802001","name":"古槐街道"},{"id":"370811002","parentId":"370811","areaCode":"370811002","name":"金城街道"},{"id":"370826001","parentId":"370826","areaCode":"370826001","name":"夏镇街道"},{"id":"371624001","parentId":"371624","areaCode":"371624001","name":"富国街道"},{"id":"371625001","parentId":"371625","areaCode":"371625001","name":"博昌街道"},{"id":"371626001","parentId":"371626","areaCode":"371626001","name":"黛溪街道"},{"id":"371698004","parentId":"371698","areaCode":"371698004","name":"青田街道"},{"id":"371699001","parentId":"371699","areaCode":"371699001","name":"杜店街道"},{"id":"371290001","parentId":"371290","areaCode":"371290001","name":"鹏泉街道"},{"id":"370502","parentId":"3705","areaCode":"370502","name":"东营区"},{"id":"370503001","parentId":"370503","areaCode":"370503001","name":"河口区街道"},{"id":"370522001","parentId":"370522","areaCode":"370522001","name":"利津街道"},{"id":"370523001","parentId":"370523","areaCode":"370523001","name":"广饶街道"},{"id":"370784001","parentId":"370784","areaCode":"370784001","name":"兴安街道"},{"id":"371623001","parentId":"371623","areaCode":"371623001","name":"海丰街道"},{"id":"370684001","parentId":"370684","areaCode":"370684001","name":"登州街道"},{"id":"370685001","parentId":"370685","areaCode":"370685001","name":"罗峰街道"},{"id":"371725001","parentId":"371725","areaCode":"371725001","name":"郓州街道"},{"id":"370704001","parentId":"370704","areaCode":"370704001","name":"坊城街道"},{"id":"370705001","parentId":"370705","areaCode":"370705001","name":"东关街道"},{"id":"370725016","parentId":"370725","areaCode":"370725016","name":"宝城街道"},{"id":"370783001","parentId":"370783","areaCode":"370783001","name":"圣城街道"},{"id":"371090001","parentId":"371090","areaCode":"371090001","name":"皇冠街道"},{"id":"371091001","parentId":"371091","areaCode":"371091001","name":"怡园街道"},{"id":"371092100","parentId":"371092","areaCode":"371092100","name":"草庙子镇"},{"id":"371202","parentId":"3712","areaCode":"371202","name":"莱城区"},{"id":"371202001","parentId":"371202","areaCode":"371202001","name":"凤城街道"},{"id":"371203001","parentId":"371203","areaCode":"371203001","name":"艾山街道"},{"id":"370882001","parentId":"370882","areaCode":"370882001","name":"鼓楼街道"},{"id":"371402","parentId":"3714","areaCode":"371402","name":"德城区"},{"id":"371402001","parentId":"371402","areaCode":"371402001","name":"新湖街道"},{"id":"371421001","parentId":"371421","areaCode":"371421001","name":"安德街道"},{"id":"371425001","parentId":"371425","areaCode":"371425001","name":"晏城街道"},{"id":"371426001","parentId":"371426","areaCode":"371426001","name":"龙门街道办事处"},
 {"id":"371427001","parentId":"371427","areaCode":"371427001","name":"银城街道"},{"id":"371428001","parentId":"371428","areaCode":"371428001","name":"广运街道"},{"id":"371498001","parentId":"371498","areaCode":"371498001","name":"运河街道"},{"id":"371499001","parentId":"371499","areaCode":"371499001","name":"长河街道办事处"},{"id":"371702","parentId":"3717","areaCode":"371702","name":"牡丹区"},{"id":"371702001","parentId":"371702","areaCode":"371702001","name":"东城街道"},{"id":"370302","parentId":"3703","areaCode":"370302","name":"淄川区"},{"id":"370302001","parentId":"370302","areaCode":"370302001","name":"般阳路街道"},{"id":"370303001","parentId":"370303","areaCode":"370303001","name":"车站街道"},{"id":"370304002","parentId":"370304","areaCode":"370304002","name":"城西街道"},{"id":"370305001","parentId":"370305","areaCode":"370305001","name":"闻韶街道"},{"id":"370321001","parentId":"370321","areaCode":"370321001","name":"索镇镇"},{"id":"370322001","parentId":"370322","areaCode":"370322001","name":"田镇街道"},{"id":"370390004","parentId":"370390","areaCode":"370390004","name":"四宝山街道"},{"id":"371102","parentId":"3711","areaCode":"371102","name":"东港区"},{"id":"371102001","parentId":"371102","areaCode":"371102001","name":"日照街道"},{"id":"371122001","parentId":"371122","areaCode":"371122001","name":"城阳街道"},{"id":"370702","parentId":"3707","areaCode":"370702","name":"潍城区"},{"id":"370703001","parentId":"370703","areaCode":"370703001","name":"寒亭街道"},{"id":"370190001","parentId":"370190","areaCode":"370190001","name":"舜华路街道"},{"id":"3702","parentId":"37","areaCode":"3702","name":"青岛市"},{"id":"370202","parentId":"3702","areaCode":"370202","name":"市南区"},{"id":"371103005","parentId":"371103","areaCode":"371103005","name":"岚山头街道"},{"id":"371121001","parentId":"371121","areaCode":"371121001","name":"洪凝街道"},{"id":"370181001","parentId":"370181","areaCode":"370181001","name":"明水街道"},{"id":"370212001","parentId":"370212","areaCode":"370212001","name":"中韩街道"},{"id":"371726001","parentId":"371726","areaCode":"371726001","name":"陈王街道"},{"id":"371727001","parentId":"371727","areaCode":"371727001","name":"天中街道"},{"id":"371790001","parentId":"371790","areaCode":"371790001","name":"丹阳街道"},{"id":"371524001","parentId":"371524","areaCode":"371524001","name":"铜城街道"},{"id":"370828001","parentId":"370828","areaCode":"370828001","name":"金乡街道"},{"id":"370830001","parentId":"370830","areaCode":"370830001","name":"中都街道"},{"id":"370831001","parentId":"370831","areaCode":"370831001","name":"泗河街道"},{"id":"371728001","parentId":"371728","areaCode":"371728001","name":"城关街道"},{"id":"371724001","parentId":"371724","areaCode":"371724001","name":"永丰街道办事处"},
 {"id":"371723001","parentId":"371723","areaCode":"371723001","name":"文亭街道"},{"id":"370794001","parentId":"370794","areaCode":"370794001","name":"北城街道"},{"id":"371424001","parentId":"371424","areaCode":"371424001","name":"临盘街道"},{"id":"370782001","parentId":"370782","areaCode":"370782001","name":"密州街道"},{"id":"371329001","parentId":"371329","areaCode":"371329001","name":"临沭街道"},{"id":"370990001","parentId":"370990","areaCode":"370990001","name":"北集坡街道"},{"id":"371322001","parentId":"371322","areaCode":"371322001","name":"郯城街道"},{"id":"371325001","parentId":"371325","areaCode":"371325001","name":"费城街道"},{"id":"370105001","parentId":"370105","areaCode":"370105001","name":"无影山街道 "},{"id":"371422001","parentId":"371422","areaCode":"371422001","name":"宁城街道"},{"id":"370785001","parentId":"370785","areaCode":"370785001","name":"朝阳街道"},{"id":"370634001","parentId":"370634","areaCode":"370634001","name":"南长山街道"},{"id":"370827001","parentId":"370827","areaCode":"370827001","name":"谷亭街道"},{"id":"370829001","parentId":"370829","areaCode":"370829001","name":"嘉祥街道"},{"id":"370406001","parentId":"370406","areaCode":"370406001","name":"山城街道"},{"id":"370286001","parentId":"370286","areaCode":"370286001","name":"驻地镇"},{"id":"371391001","parentId":"371391","areaCode":"371391001","name":"罗西办事处"},{"id":"371323001","parentId":"371323","areaCode":"371323001","name":"沂城街道"},{"id":"370323001","parentId":"370323","areaCode":"370323001","name":"历山街道"},{"id":"371107001","parentId":"371107","areaCode":"371107001","name":"涛雒镇"},{"id":"370291007","parentId":"370291","areaCode":"370291007","name":"河套街道"},{"id":"371481001","parentId":"371481","areaCode":"371481001","name":"市中街道"},{"id":"370687001","parentId":"370687","areaCode":"370687001","name":"方圆街道"},{"id":"370681001","parentId":"370681","areaCode":"370681001","name":"东莱街道"},{"id":"371610001","parentId":"371610","areaCode":"371610001","name":"马山子镇"},{"id":"371199010","parentId":"371199","areaCode":"371199010","name":"奎山街道"},{"id":"370124001","parentId":"370124","areaCode":"370124001","name":"榆山街道"},{"id":"370702001","parentId":"370702","areaCode":"370702001","name":"城关街道"},{"id":"370481041","parentId":"370481","areaCode":"370481041","name":"鲍沟镇"},{"id":"370306001","parentId":"370306","areaCode":"370306001","name":"丝绸路街道"},{"id":"371393100","parentId":"371393","areaCode":"371393100","name":"团林镇"},{"id":"371106001","parentId":"371106","areaCode":"371106001","name":"两城"},{"id":"371423105","parentId":"371423","areaCode":"371423105","name":"红云开发区"},{"id":"370103002","parentId":"370103","areaCode":"370103002","name":"大观园街道"},{"id":"370104001","parentId":"370104","areaCode":"370104001","name":"振兴街街道"},{"id":"370126001","parentId":"370126","areaCode":"370126001","name":"许商街道"},{"id":"370682001","parentId":"370682","areaCode":"370682001","name":"城厢街道"},{"id":"370832001","parentId":"370832","areaCode":"370832001","name":"梁山街道"},{"id":"370881001","parentId":"370881","areaCode":"370881001","name":"鲁城街道办事处"},{"id":"370602001","parentId":"370602","areaCode":"370602001","name":"向阳街道"},{"id":"370612001","parentId":"370612","areaCode":"370612001","name":"宁海街道"},{"id":"370790001","parentId":"370790","areaCode":"370790001","name":"新城街道"},{"id":"370791001","parentId":"370791","areaCode":"370791001","name":"大家洼街道"},{"id":"370793100","parentId":"370793","areaCode":"370793100","name":"王家庄街道"},{"id":"371002001","parentId":"371002","areaCode":"371002001","name":"环翠楼街道办事处"},{"id":"371081001","parentId":"371081","areaCode":"371081001","name":"龙山街道"},{"id":"371083001","parentId":"371083","areaCode":"371083001","name":"城区街道"},{"id":"371602","parentId":"3716","areaCode":"371602","name":"滨城区"},{"id":"371602001","parentId":"371602","areaCode":"371602001","name":"市中街道"},{"id":"371622001","parentId":"371622","areaCode":"371622001","name":"信城街道"},{"id":"370402001","parentId":"370402","areaCode":"370402001","name":"中心街街道"},{"id":"370683001","parentId":"370683","areaCode":"370683001","name":"文昌路街道"},{"id":"371721001","parentId":"371721","areaCode":"371721001","name":"青菏街道"},{"id":"370113001","parentId":"370113","areaCode":"370113001","name":"文昌街道 "},{"id":"370521107","parentId":"370521","areaCode":"370521107","name":"红光办事处"},{"id":"370830002","parentId":"370830","areaCode":"370830002","name":"汶上街道"},{"id":"370831002","parentId":"370831","areaCode":"370831002","name":"济河街道"},{"id":"370882003","parentId":"370882","areaCode":"370882003","name":"酒仙桥街道"},{"id":"371402003","parentId":"371402","areaCode":"371402003","name":"新华街道"},{"id":"371427002","parentId":"371427","areaCode":"371427002","name":"开发区"},{"id":"371428100","parentId":"371428","areaCode":"371428100","name":"武城镇"},{"id":"370403","parentId":"3704","areaCode":"370403","name":"薛城区"},{"id":"370404002","parentId":"370404","areaCode":"370404002","name":"吴林街道"},{"id":"370102002","parentId":"370102","areaCode":"370102002","name":"千佛山街道"},{"id":"370103","parentId":"3701","areaCode":"370103","name":"市中区"},{"id":"370103003","parentId":"370103","areaCode":"370103003","name":"杆石桥街道 "},{"id":"370105003","parentId":"370105","areaCode":"370105003","name":"天桥东街道 "},{"id":"370923002","parentId":"370923","areaCode":"370923002","name":"东平街道"},{"id":"370982002","parentId":"370982","areaCode":"370982002","name":"新汶街道"},{"id":"370702002","parentId":"370702","areaCode":"370702002","name":"南关街道"},{"id":"370703002","parentId":"370703","areaCode":"370703002","name":"开元街道"},{"id":"370704003","parentId":"370704","areaCode":"370704003","name":"凤凰街道"},{"id":"370705002","parentId":"370705","areaCode":"370705002","name":"大虞街道"},{"id":"370783003","parentId":"370783","areaCode":"370783003","name":"文家街道"},{"id":"370784002","parentId":"370784","areaCode":"370784002","name":"新安街道"},{"id":"370785002","parentId":"370785","areaCode":"370785002","name":"醴泉街道"},{"id":"371002002","parentId":"371002","areaCode":"371002002","name":"鲸园街道办事处"},{"id":"371083100","parentId":"371083","areaCode":"371083100","name":"夏村镇"},{"id":"370612002","parentId":"370612","areaCode":"370612002","name":"文化街道"},{"id":"370190002","parentId":"370190","areaCode":"370190002","name":"巨野河街道"},{"id":"370203002","parentId":"370203","areaCode":"370203002","name":"大港街道"},{"id":"370481061","parentId":"370481","areaCode":"370481061","name":"滨湖镇"},{"id":"370213002","parentId":"370213","areaCode":"370213002","name":"永清路街道"},{"id":"370281002","parentId":"370281","areaCode":"370281002","name":"中云街道"},{"id":"370282002","parentId":"370282","areaCode":"370282002","name":"开发区"},{"id":"370307101","parentId":"370307","areaCode":"370307101","name":"商家镇"},{"id":"370283002","parentId":"370283","areaCode":"370283002","name":"李园街道"},{"id":"370285002","parentId":"370285","areaCode":"370285002","name":"望城街道"},{"id":"370902002","parentId":"370902","areaCode":"370902002","name":"财源街道"},{"id":"370911","parentId":"3709","areaCode":"370911","name":"岱岳区"},{"id":"371702002","parentId":"371702","areaCode":"371702002","name":"西城街道"},{"id":"371302001","parentId":"371302","areaCode":"371302001","name":"兰山街道"},{"id":"371311","parentId":"3713","areaCode":"371311","name":"罗庄区"},{"id":"371311002","parentId":"371311","areaCode":"371311002","name":"付庄街道"},{"id":"371312002","parentId":"371312","areaCode":"371312002","name":"相公街道"},{"id":"371321101","parentId":"371321","areaCode":"371321101","name":"岸堤镇"},{"id":"371322101","parentId":"371322","areaCode":"371322101","name":"马头镇"},{"id":"371323101","parentId":"371323","areaCode":"371323101","name":"马站镇"},{"id":"371328101","parentId":"371328","areaCode":"371328101","name":"常路镇"},{"id":"371329002","parentId":"371329","areaCode":"371329002","name":"郑山街道"},{"id":"371391100","parentId":"371391","areaCode":"371391100","name":"马厂湖镇"},{"id":"370211002","parentId":"370211","areaCode":"370211002","name":"辛安街道"},{"id":"370212002","parentId":"370212","areaCode":"370212002","name":"沙子口街道"},{"id":"370634101","parentId":"370634","areaCode":"370634101","name":"砣矶镇"},{"id":"370682002","parentId":"370682","areaCode":"370682002","name":"古柳街道"},{"id":"370683002","parentId":"370683","areaCode":"370683002","name":"永安路街道"},{"id":"371723002","parentId":"371723","areaCode":"371723002","name":"永昌街道"},{"id":"371724002","parentId":"371724","areaCode":"371724002","name":"凤凰街道办事处"},{"id":"371726002","parentId":"371726","areaCode":"371726002","name":"古泉街道"},{"id":"371727002","parentId":"371727","areaCode":"371727002","name":"滨河街道"},{"id":"370724002","parentId":"370724","areaCode":"370724002","name":"东城街道"},{"id":"370781002","parentId":"370781","areaCode":"370781002","name":"益都街道"},{"id":"370782002","parentId":"370782","areaCode":"370782002","name":"龙都街道"},{"id":"371090002","parentId":"371090","areaCode":"371090002","name":"凤林街道"},{"id":"371091004","parentId":"371091","areaCode":"371091004","name":"田和街道"},{"id":"371092101","parentId":"371092","areaCode":"371092101","name":"汪疃镇"},{"id":"371202002","parentId":"371202","areaCode":"371202002","name":"张家洼街道"},{"id":"371203","parentId":"3712","areaCode":"371203","name":"钢城区"},{"id":"370203","parentId":"3702","areaCode":"370203","name":"市北区"},{"id":"370883002","parentId":"370883","areaCode":"370883002","name":"千泉街道"},{"id":"371421","parentId":"3714","areaCode":"371421","name":"陵县"},{"id":"371424002","parentId":"371424","areaCode":"371424002","name":"邢侗街道"},{"id":"371425002","parentId":"371425","areaCode":"371425002","name":"晏北街道"},{"id":"371426002","parentId":"371426","areaCode":"371426002","name":"桃园街道办事处"},{"id":"371481002","parentId":"371481","areaCode":"371481002","name":"胡家街道"},{"id":"371482100","parentId":"371482","areaCode":"371482100","name":"伦镇"},{"id":"371721","parentId":"3717","areaCode":"371721","name":"曹县"},{"id":"371722002","parentId":"371722","areaCode":"371722002","name":"北城街道"},{"id":"370304","parentId":"3703","areaCode":"370304","name":"博山区"},{"id":"370305002","parentId":"370305","areaCode":"370305002","name":"雪宫街道"},{"id":"370306002","parentId":"370306","areaCode":"370306002","name":"大街街道"},{"id":"370321002","parentId":"370321","areaCode":"370321002","name":"城区街道办事处"},{"id":"370322002","parentId":"370322","areaCode":"370322002","name":"芦湖街道"},{"id":"370323100","parentId":"370323","areaCode":"370323100","name":"南麻镇"},{"id":"371103","parentId":"3711","areaCode":"371103","name":"岚山区"},{"id":"370703","parentId":"3707","areaCode":"370703","name":"寒亭区"},{"id":"370202002","parentId":"370202","areaCode":"370202002","name":"八大峡街道"},{"id":"3703","parentId":"37","areaCode":"3703","name":"淄博市"},{"id":"370303002","parentId":"370303","areaCode":"370303002","name":"公园街道"},{"id":"370304003","parentId":"370304","areaCode":"370304003","name":"城东街道"},{"id":"371122102","parentId":"371122","areaCode":"371122102","name":"招贤镇"},{"id":"370214002","parentId":"370214","areaCode":"370214002","name":"夏庄街道"},{"id":"370406101","parentId":"370406","areaCode":"370406101","name":"店子镇"},{"id":"371502002","parentId":"371502","areaCode":"371502002","name":"新区街道"},{"id":"371521","parentId":"3715","areaCode":"371521","name":"阳谷县"},{"id":"371521002","parentId":"371521","areaCode":"371521002","name":"狮子楼街道"},{"id":"371525002","parentId":"371525","areaCode":"371525002","name":"崇文街道"},{"id":"371526002","parentId":"371526","areaCode":"371526002","name":"人和街道"},{"id":"371599002","parentId":"371599","areaCode":"371599002","name":"蒋官屯街道"},{"id":"370113002","parentId":"370113","areaCode":"370113002","name":"崮云湖街道"},{"id":"370126101","parentId":"370126","areaCode":"370126101","name":"殷巷镇 "},{"id":"370284002","parentId":"370284","areaCode":"370284002","name":"珠海街道"},{"id":"370911002","parentId":"370911","areaCode":"370911002","name":"天平街道"},{"id":"370921002","parentId":"370921","areaCode":"370921002","name":"八仙桥街道"},{"id":"370983002","parentId":"370983","areaCode":"370983002","name":"老城街道"},{"id":"371324101","parentId":"371324","areaCode":"371324101","name":"大仲村镇"},{"id":"371325101","parentId":"371325","areaCode":"371325101","name":"上冶镇"},{"id":"371326101","parentId":"371326","areaCode":"371326101","name":"仲村镇"},{"id":"370402002","parentId":"370402","areaCode":"370402002","name":"各塔埠街道"},{"id":"371499002","parentId":"371499","areaCode":"371499002","name":"宋官屯街道办事处"},{"id":"371522002","parentId":"371522","areaCode":"371522002","name":"莘亭街道"},{"id":"371523002","parentId":"371523","areaCode":"371523002","name":"信发街道"},{"id":"371524002","parentId":"371524","areaCode":"371524002","name":"新城街道"},{"id":"371581002","parentId":"371581","areaCode":"371581002","name":"新华路街道"},{"id":"370684002","parentId":"370684","areaCode":"370684002","name":"紫荆山街道"},{"id":"370685002","parentId":"370685","areaCode":"370685002","name":"泉山街道"},{"id":"370828101","parentId":"370828","areaCode":"370828101","name":"羊山镇"},{"id":"371728002","parentId":"371728","areaCode":"371728002","name":"渔沃街道"},{"id":"370829101","parentId":"370829","areaCode":"370829101","name":"纸坊镇"},{"id":"371602002","parentId":"371602","areaCode":"371602002","name":"市西街道"},{"id":"371790002","parentId":"371790","areaCode":"371790002","name":"岳程街道"},{"id":"370602002","parentId":"370602","areaCode":"370602002","name":"东山街道"},{"id":"371398002","parentId":"371398","areaCode":"371398002","name":"梅埠街道"},{"id":"370403101","parentId":"370403","areaCode":"370403101","name":"沙沟镇"},{"id":"370405101","parentId":"370405","areaCode":"370405101","name":"涧头集镇"},{"id":"370125002","parentId":"370125","areaCode":"370125002","name":"济北街道 "},{"id":"371102002","parentId":"371102","areaCode":"371102002","name":"石臼街道"},{"id":"371103006","parentId":"371103","areaCode":"371103006","name":"安东卫街道"},{"id":"370503002","parentId":"370503","areaCode":"370503002","name":"六合街道"},{"id":"370791005","parentId":"370791","areaCode":"370791005","name":"央子街道"},{"id":"371081002","parentId":"371081","areaCode":"371081002","name":"天福街道"},{"id":"371421002","parentId":"371421","areaCode":"371421002","name":"临齐街道"},{"id":"371422002","parentId":"371422","areaCode":"371422002","name":"津城街道"},{"id":"370793101","parentId":"370793","areaCode":"370793101","name":"太保庄街道"},{"id":"371327102","parentId":"371327","areaCode":"371327102","name":"大店镇"},{"id":"371199030","parentId":"371199","areaCode":"371199030","name":"北京路街道"},{"id":"371393101","parentId":"371393","areaCode":"371393101","name":"坪上镇"},{"id":"371725002","parentId":"371725","areaCode":"371725002","name":"唐塔街道"},{"id":"370794002","parentId":"370794","areaCode":"370794002","name":"张氏街道"},{"id":"371423001","parentId":"371423","areaCode":"371423001","name":"渤海路街道"},{"id":"370725017","parentId":"370725","areaCode":"370725017","name":"城关街道"},{"id":"371121102","parentId":"371121","areaCode":"371121102","name":"街头镇"},{"id":"371721002","parentId":"371721","areaCode":"371721002","name":"曹城街道"},{"id":"370112002","parentId":"370112","areaCode":"370112002","name":"洪家楼街道"},{"id":"370104002","parentId":"370104","areaCode":"370104002","name":"中大槐树街道 "},{"id":"370181002","parentId":"370181","areaCode":"370181002","name":"双山街道"},{"id":"371106002","parentId":"371106","areaCode":"371106002","name":"卧龙山"},{"id":"370302002","parentId":"370302","areaCode":"370302002","name":"松龄路街道"},{"id":"370291006","parentId":"370291","areaCode":"370291006","name":"红岛街道"},{"id":"370832002","parentId":"370832","areaCode":"370832002","name":"水泊街道"},{"id":"370881002","parentId":"370881","areaCode":"370881002","name":"书院街道办事处"},{"id":"370611","parentId":"3706","areaCode":"370611","name":"福山区"},{"id":"370611002","parentId":"370611","areaCode":"370611002","name":"福新街道"},{"id":"370790002","parentId":"370790","areaCode":"370790002","name":"清池街道"},{"id":"371081","parentId":"3710","areaCode":"371081","name":"文登市"},{"id":"371082002","parentId":"371082","areaCode":"371082002","name":"斥山街道"},{"id":"371621","parentId":"3716","areaCode":"371621","name":"惠民县"},{"id":"371622002","parentId":"371622","areaCode":"371622002","name":"金阳街道"},{"id":"370124002","parentId":"370124","areaCode":"370124002","name":"锦水街道"},{"id":"370686002","parentId":"370686","areaCode":"370686002","name":"庄园街道"},{"id":"370687002","parentId":"370687","areaCode":"370687002","name":"东村街道"},{"id":"370690004","parentId":"370690","areaCode":"370690004","name":"古现街道"},{"id":"370802002","parentId":"370802","areaCode":"370802002","name":"济阳街道"},{"id":"370811","parentId":"3708","areaCode":"370811","name":"任城区"},{"id":"370811003","parentId":"370811","areaCode":"370811003","name":"仙营街道"},{"id":"370826002","parentId":"370826","areaCode":"370826002","name":"昭阳街道"},{"id":"370827002","parentId":"370827","areaCode":"370827002","name":"滨湖街道"},{"id":"371624002","parentId":"371624","areaCode":"371624002","name":"富源街道"},{"id":"371625002","parentId":"371625","areaCode":"371625002","name":"城东街道"},{"id":"371626002","parentId":"371626","areaCode":"371626002","name":"黄山街道"},{"id":"371698006","parentId":"371698","areaCode":"371698006","name":"小营街道"},{"id":"371699002","parentId":"371699","areaCode":"371699002","name":"沙河街道"},{"id":"371203100","parentId":"371203","areaCode":"371203100","name":"颜庄镇"},{"id":"370502001","parentId":"370502","areaCode":"370502001","name":"文汇街道"},{"id":"370503","parentId":"3705","areaCode":"370503","name":"河口区"},{"id":"370521001","parentId":"370521","areaCode":"370521001","name":"垦利街道"},{"id":"370522002","parentId":"370522","areaCode":"370522002","name":"凤凰城街道"},{"id":"370523002","parentId":"370523","areaCode":"370523002","name":"乐安街道"},{"id":"370786002","parentId":"370786","areaCode":"370786002","name":"都昌街道"},{"id":"371623002","parentId":"371623","areaCode":"371623002","name":"棣丰街道"},{"id":"370613002","parentId":"370613","areaCode":"370613002","name":"初家街道"},{"id":"371481003","parentId":"371481","areaCode":"371481003","name":"云红街道"},{"id":"371499100","parentId":"371499","areaCode":"371499100","name":"赵虎镇"},{"id":"370404","parentId":"3704","areaCode":"370404","name":"峄城区"},{"id":"370404100","parentId":"370404","areaCode":"370404100","name":"古邵镇"},{"id":"370102003","parentId":"370102","areaCode":"370102003","name":"趵突泉街道"},{"id":"370103004","parentId":"370103","areaCode":"370103004","name":"四里村街道 "},{"id":"370104","parentId":"3701","areaCode":"370104","name":"槐荫区"},{"id":"370104003","parentId":"370104","areaCode":"370104003","name":"道德街街道 "},{"id":"370105004","parentId":"370105","areaCode":"370105004","name":"北村街道 "},{"id":"370923101","parentId":"370923","areaCode":"370923101","name":"沙河站镇"},{"id":"370982101","parentId":"370982","areaCode":"370982101","name":"东都镇"},{"id":"370983003","parentId":"370983","areaCode":"370983003","name":"王瓜店街道"},{"id":"370304004","parentId":"370304","areaCode":"370304004","name":"山头街道"},{"id":"371081003","parentId":"371081","areaCode":"371081003","name":"环山街道"},{"id":"370612","parentId":"3706","areaCode":"370612","name":"牟平区"},{"id":"370681003","parentId":"370681","areaCode":"370681003","name":"新嘉街道"},{"id":"371723101","parentId":"371723","areaCode":"371723101","name":"大田集镇"},{"id":"370125100","parentId":"370125","areaCode":"370125100","name":"回河镇 "},{"id":"370481071","parentId":"370481","areaCode":"370481071","name":"柴胡店镇"},{"id":"370790301","parentId":"370790","areaCode":"370790301","name":"新钢街道"},{"id":"370213003","parentId":"370213","areaCode":"370213003","name":"永安路街道"},{"id":"370214003","parentId":"370214","areaCode":"370214003","name":"流亭街道"},{"id":"370283003","parentId":"370283","areaCode":"370283003","name":"同和街道"},{"id":"370284003","parentId":"370284","areaCode":"370284003","name":"隐珠街道"},{"id":"370902003","parentId":"370902","areaCode":"370902003","name":"泰前街道"},{"id":"370911100","parentId":"370911","areaCode":"370911100","name":"山口镇"},{"id":"370921","parentId":"3709","areaCode":"370921","name":"宁阳县"},{"id":"370921101","parentId":"370921","areaCode":"370921101","name":"泗店镇"},{"id":"371311003","parentId":"371311","areaCode":"371311003","name":"盛庄街道"},{"id":"371312","parentId":"3713","areaCode":"371312","name":"河东区"},{"id":"371312003","parentId":"371312","areaCode":"371312003","name":"太平街道"},{"id":"371321102","parentId":"371321","areaCode":"371321102","name":"孙祖镇"},{"id":"371322102","parentId":"371322","areaCode":"371322102","name":"重坊镇"},{"id":"371324102","parentId":"371324","areaCode":"371324102","name":"兰陵镇"},{"id":"371325102","parentId":"371325","areaCode":"371325102","name":"薛庄镇"},{"id":"371393102","parentId":"371393","areaCode":"371393102","name":"壮岗镇"},{"id":"3704","parentId":"37","areaCode":"3704","name":"枣庄市"},{"id":"370402003","parentId":"370402","areaCode":"370402003","name":"矿区街道"},{"id":"370211003","parentId":"370211","areaCode":"370211003","name":"薛家岛街道"},{"id":"370212003","parentId":"370212","areaCode":"370212003","name":"王哥庄街道"},{"id":"370503100","parentId":"370503","areaCode":"370503100","name":"义和镇"},{"id":"370521","parentId":"3705","areaCode":"370521","name":"垦利县"},{"id":"370521002","parentId":"370521","areaCode":"370521002","name":"兴隆街道"},{"id":"370522101","parentId":"370522","areaCode":"370522101","name":"北宋镇"},{"id":"370523101","parentId":"370523","areaCode":"370523101","name":"大王镇"},{"id":"370785003","parentId":"370785","areaCode":"370785003","name":"密水街道"},{"id":"370786003","parentId":"370786","areaCode":"370786003","name":"围子街道"},{"id":"370683003","parentId":"370683","areaCode":"370683003","name":"三山岛街道"},{"id":"370684003","parentId":"370684","areaCode":"370684003","name":"新港街道"},{"id":"371726101","parentId":"371726","areaCode":"371726101","name":"什集镇"},{"id":"371728101","parentId":"371728","areaCode":"371728101","name":"东明集镇"},{"id":"370703003","parentId":"370703","areaCode":"370703003","name":"固堤街道"},{"id":"370704","parentId":"3707","areaCode":"370704","name":"坊子区"},{"id":"370704004","parentId":"370704","areaCode":"370704004","name":"坊安街道"},{"id":"370781006","parentId":"370781","areaCode":"370781006","name":"云门山街道"},{"id":"370783004","parentId":"370783","areaCode":"370783004","name":"孙家集街道"},{"id":"371090003","parentId":"371090","areaCode":"371090003","name":"西苑街道"},{"id":"371092102","parentId":"371092","areaCode":"371092102","name":"苘山镇"},{"id":"371202003","parentId":"371202","areaCode":"371202003","name":"高庄街道"},{"id":"370202004","parentId":"370202","areaCode":"370202004","name":"云南路街道"},{"id":"370883003","parentId":"370883","areaCode":"370883003","name":"凫山街道"},{"id":"371402004","parentId":"371402","areaCode":"371402004","name":"天衢街道"},{"id":"371421101","parentId":"371421","areaCode":"371421101","name":"郑家寨镇"},{"id":"371422","parentId":"3714","areaCode":"371422","name":"宁津县"},{"id":"371422101","parentId":"371422","areaCode":"371422101","name":"柴胡店镇"},{"id":"371425101","parentId":"371425","areaCode":"371425101","name":"表白寺镇"},{"id":"371427100","parentId":"371427","areaCode":"371427100","name":"南城镇"},{"id":"371482101","parentId":"371482","areaCode":"371482101","name":"房寺镇"},{"id":"371721003","parentId":"371721","areaCode":"371721003","name":"磐石街道"},{"id":"371722","parentId":"3717","areaCode":"371722","name":"单县"},{"id":"371722003","parentId":"371722","areaCode":"371722003","name":"园艺街道"},{"id":"371599003","parentId":"371599","areaCode":"371599003","name":"北城街道"},{"id":"370303004","parentId":"370303","areaCode":"370303004","name":"和平街道"},{"id":"370305","parentId":"3703","areaCode":"370305","name":"临淄区"},{"id":"370305003","parentId":"370305","areaCode":"370305003","name":"辛店街道"},{"id":"370306003","parentId":"370306","areaCode":"370306003","name":"青年路街道"},{"id":"370321101","parentId":"370321","areaCode":"370321101","name":"起凤镇"},{"id":"370323103","parentId":"370323","areaCode":"370323103","name":"东里镇"},{"id":"371102004","parentId":"371102","areaCode":"371102004","name":"秦楼街道"},{"id":"371103104","parentId":"371103","areaCode":"371103104","name":"高兴镇"},{"id":"371121","parentId":"3711","areaCode":"371121","name":"五莲县"},{"id":"371121103","parentId":"371121","areaCode":"371121103","name":"潮河镇"},{"id":"371122103","parentId":"371122","areaCode":"371122103","name":"阎庄镇"},{"id":"370282003","parentId":"370282","areaCode":"370282003","name":"通济街道"},{"id":"370406102","parentId":"370406","areaCode":"370406102","name":"西集镇"},{"id":"371502003","parentId":"371502","areaCode":"371502003","name":"柳园街道"},{"id":"371521003","parentId":"371521","areaCode":"371521003","name":"侨润街道"},{"id":"371522","parentId":"3715","areaCode":"371522","name":"莘县"},{"id":"371522003","parentId":"371522","areaCode":"371522003","name":"东鲁街道"},{"id":"371524101","parentId":"371524","areaCode":"371524101","name":"刘集镇"},{"id":"371525003","parentId":"371525","areaCode":"371525003","name":"烟庄街道"},{"id":"371581003","parentId":"371581","areaCode":"371581003","name":"先锋路街道"},{"id":"370113003","parentId":"370113","areaCode":"370113003","name":"平安街道"},{"id":"370124102","parentId":"370124","areaCode":"370124102","name":"东阿镇 "},{"id":"370181003","parentId":"370181","areaCode":"370181003","name":"龙山街道"},{"id":"371790003","parentId":"371790","areaCode":"371790003","name":"佃户屯街道"},{"id":"370285004","parentId":"370285","areaCode":"370285004","name":"经济开发区"},{"id":"371329101","parentId":"371329","areaCode":"371329101","name":"蛟龙镇"},{"id":"371398003","parentId":"371398","areaCode":"371398003","name":"重沟街道"},{"id":"371526003","parentId":"371526","areaCode":"371526003","name":"汇鑫街道"},{"id":"370686003","parentId":"370686","areaCode":"370686003","name":"松山街道"},{"id":"370829102","parentId":"370829","areaCode":"370829102","name":"梁宝寺镇"},{"id":"370832101","parentId":"370832","areaCode":"370832101","name":"小路口镇"},{"id":"370881003","parentId":"370881","areaCode":"370881003","name":"小雪街道"},{"id":"371702003","parentId":"371702","areaCode":"371702003","name":"南城街道"},{"id":"371523003","parentId":"371523","areaCode":"371523003","name":"温陈街道"},{"id":"370830101","parentId":"370830","areaCode":"370830101","name":"南站镇"},{"id":"370831101","parentId":"370831","areaCode":"370831101","name":"泉林镇"},{"id":"370405102","parentId":"370405","areaCode":"370405102","name":"邳庄镇"},{"id":"371727101","parentId":"371727","areaCode":"371727101","name":"陈集镇"},{"id":"370634201","parentId":"370634","areaCode":"370634201","name":"北长山乡"},{"id":"370613003","parentId":"370613","areaCode":"370613003","name":"滨海路街道"},{"id":"371426101","parentId":"371426","areaCode":"371426101","name":"王凤楼镇"},{"id":"371323102","parentId":"371323","areaCode":"371323102","name":"高桥镇"},{"id":"370322101","parentId":"370322","areaCode":"370322101","name":"青城镇"},{"id":"371326102","parentId":"371326","areaCode":"371326102","name":"武台镇"},{"id":"371327103","parentId":"371327","areaCode":"371327103","name":"坊前镇"},{"id":"371328102","parentId":"371328","areaCode":"371328102","name":"岱崮镇"},{"id":"370190003","parentId":"370190","areaCode":"370190003","name":"孙村街道"},{"id":"370203003","parentId":"370203","areaCode":"370203003","name":"即墨路街道"},{"id":"370882004","parentId":"370882","areaCode":"370882004","name":"龙桥街道"},{"id":"370725018","parentId":"370725","areaCode":"370725018","name":"朱刘街道"},{"id":"371091100","parentId":"371091","areaCode":"371091100","name":"初村镇"},{"id":"370502002","parentId":"370502","areaCode":"370502002","name":"黄河路街道"},{"id":"371625003","parentId":"371625","areaCode":"371625003","name":"锦秋街道"},{"id":"370690005","parentId":"370690","areaCode":"370690005","name":"八角街道"},{"id":"370828102","parentId":"370828","areaCode":"370828102","name":"胡集镇"},{"id":"371428101","parentId":"371428","areaCode":"371428101","name":"老城镇"},{"id":"371424003","parentId":"371424","areaCode":"371424003","name":"恒源街道"},{"id":"370705003","parentId":"370705","areaCode":"370705003","name":"梨园街道"},{"id":"370782003","parentId":"370782","areaCode":"370782003","name":"舜王街道"},{"id":"370724101","parentId":"370724","areaCode":"370724101","name":"五井镇"},{"id":"371423100","parentId":"371423","areaCode":"371423100","name":"庆云镇"},{"id":"371623101","parentId":"371623","areaCode":"371623101","name":"水湾镇"},{"id":"371302002","parentId":"371302","areaCode":"371302002","name":"银雀山街道"},{"id":"370784103","parentId":"370784","areaCode":"370784103","name":"凌河镇"},{"id":"370702003","parentId":"370702","areaCode":"370702003","name":"西关街道"},{"id":"370794003","parentId":"370794","areaCode":"370794003","name":"双杨街道"},{"id":"371602003","parentId":"371602","areaCode":"371602003","name":"北镇街道"},{"id":"371724101","parentId":"371724","areaCode":"371724101","name":"龙堌镇"},{"id":"370112003","parentId":"370112","areaCode":"370112003","name":"东风街道"},{"id":"370126102","parentId":"370126","areaCode":"370126102","name":"怀仁镇 "},{"id":"370302004","parentId":"370302","areaCode":"370302004","name":"钟楼街道"},{"id":"370602003","parentId":"370602","areaCode":"370602003","name":"毓璜顶街道"},{"id":"370611003","parentId":"370611","areaCode":"370611003","name":"门楼街道"},{"id":"370612003","parentId":"370612","areaCode":"370612003","name":"养马岛街道"},{"id":"371002003","parentId":"371002","areaCode":"371002003","name":"竹岛街道办事处"},{"id":"371082","parentId":"3710","areaCode":"371082","name":"荣成市"},{"id":"371082003","parentId":"371082","areaCode":"371082003","name":"东山街道"},{"id":"371083101","parentId":"371083","areaCode":"371083101","name":"乳山口镇"},{"id":"371621101","parentId":"371621","areaCode":"371621101","name":"石庙镇"},{"id":"371622","parentId":"3716","areaCode":"371622","name":"阳信县"},{"id":"371622101","parentId":"371622","areaCode":"371622101","name":"商店镇"},{"id":"370403102","parentId":"370403","areaCode":"370403102","name":"周营镇"},{"id":"370682003","parentId":"370682","areaCode":"370682003","name":"龙旺庄街道"},{"id":"371725101","parentId":"371725","areaCode":"371725101","name":"黄安镇"},{"id":"370685003","parentId":"370685","areaCode":"370685003","name":"梦芝街道"},{"id":"370687003","parentId":"370687","areaCode":"370687003","name":"凤城街道"},{"id":"370802003","parentId":"370802","areaCode":"370802003","name":"阜桥街道"},{"id":"370811004","parentId":"370811","areaCode":"370811004","name":"南张街道"},{"id":"370826","parentId":"3708","areaCode":"370826","name":"微山县"},{"id":"370826101","parentId":"370826","areaCode":"370826101","name":"韩庄镇"},{"id":"370827101","parentId":"370827","areaCode":"370827101","name":"清河镇"},{"id":"371624101","parentId":"371624","areaCode":"371624101","name":"下洼镇"},{"id":"371626003","parentId":"371626","areaCode":"371626003","name":"高新街道"},{"id":"371699003","parentId":"371699","areaCode":"371699003","name":"里则街道"},{"id":"371203101","parentId":"371203","areaCode":"371203101","name":"黄庄镇"},{"id":"371290","parentId":"3712","areaCode":"371290","name":"高新区"},{"id":"370982102","parentId":"370982","areaCode":"370982102","name":"小协镇"},{"id":"370983101","parentId":"370983","areaCode":"370983101","name":"潮泉镇"},{"id":"370705","parentId":"3707","areaCode":"370705","name":"奎文区"},{"id":"370724103","parentId":"370724","areaCode":"370724103","name":"冶源镇"},{"id":"370781008","parentId":"370781","areaCode":"370781008","name":"黄楼街道"},{"id":"370782101","parentId":"370782","areaCode":"370782101","name":"枳沟镇"},{"id":"370523104","parentId":"370523","areaCode":"370523104","name":"丁庄镇"},{"id":"370786101","parentId":"370786","areaCode":"370786101","name":"柳疃镇"},{"id":"371083","parentId":"3710","areaCode":"371083","name":"乳山市"},{"id":"371621102","parentId":"371621","areaCode":"371621102","name":"桑落墅镇"},{"id":"370682004","parentId":"370682","areaCode":"370682004","name":"冯格庄街道"},{"id":"371723","parentId":"3717","areaCode":"371723","name":"成武县"},{"id":"370113004","parentId":"370113","areaCode":"370113004","name":"五峰山街道"},{"id":"370126104","parentId":"370126","areaCode":"370126104","name":"龙桑寺镇 "},{"id":"370181004","parentId":"370181","areaCode":"370181004","name":"枣园街道"},{"id":"370212004","parentId":"370212","areaCode":"370212004","name":"北宅街道"},{"id":"370481081","parentId":"370481","areaCode":"370481081","name":"东郭镇"},{"id":"370214004","parentId":"370214","areaCode":"370214004","name":"棘洪滩街道"},{"id":"370281004","parentId":"370281","areaCode":"370281004","name":"三里河街道"},{"id":"370283004","parentId":"370283","areaCode":"370283004","name":"凤台街道"},{"id":"370284004","parentId":"370284","areaCode":"370284004","name":"滨海街道"},{"id":"370911101","parentId":"370911","areaCode":"370911101","name":"祝阳镇"},{"id":"370921102","parentId":"370921","areaCode":"370921102","name":"东疏镇"},{"id":"371311006","parentId":"371311","areaCode":"371311006","name":"册山办事处"},{"id":"371312004","parentId":"371312","areaCode":"371312004","name":"汤头街道"},{"id":"371321","parentId":"3713","areaCode":"371321","name":"沂南县"},{"id":"371325105","parentId":"371325","areaCode":"371325105","name":"探沂镇"},{"id":"371326103","parentId":"371326","areaCode":"371326103","name":"保太镇"},{"id":"371327106","parentId":"371327","areaCode":"371327106","name":"板泉镇"},{"id":"371329102","parentId":"371329","areaCode":"371329102","name":"大兴镇"},{"id":"371393103","parentId":"371393","areaCode":"371393103","name":"朱芦镇"},{"id":"370211004","parentId":"370211","areaCode":"370211004","name":"灵珠山街道"},{"id":"371623","parentId":"3716","areaCode":"371623","name":"无棣县"},{"id":"370613","parentId":"3706","areaCode":"370613","name":"莱山区"},{"id":"370613004","parentId":"370613","areaCode":"370613004","name":"院格庄街道"},{"id":"370634202","parentId":"370634","areaCode":"370634202","name":"大黑山乡"},{"id":"370681004","parentId":"370681","areaCode":"370681004","name":"徐福街道"},{"id":"370684004","parentId":"370684","areaCode":"370684004","name":"蓬莱阁街道"},{"id":"371722004","parentId":"371722","areaCode":"371722004","name":"东城街道"},{"id":"371724102","parentId":"371724","areaCode":"371724102","name":"大义镇"},{"id":"371725102","parentId":"371725","areaCode":"371725102","name":"杨庄集镇"},{"id":"371726102","parentId":"371726","areaCode":"371726102","name":"红船镇"},{"id":"371727102","parentId":"371727","areaCode":"371727102","name":"冉固镇"},{"id":"370783005","parentId":"370783","areaCode":"370783005","name":"洛城街道"},{"id":"371090100","parentId":"371090","areaCode":"371090100","name":"崮山镇"},{"id":"371202100","parentId":"371202","areaCode":"371202100","name":"口镇"},{"id":"370202005","parentId":"370202","areaCode":"370202005","name":"中山街道"},{"id":"370203004","parentId":"370203","areaCode":"370203004","name":"辽宁路街道"},{"id":"370882101","parentId":"370882","areaCode":"370882101","name":"大安镇"},{"id":"371421102","parentId":"371421","areaCode":"371421102","name":"糜镇"},{"id":"371422102","parentId":"371422","areaCode":"371422102","name":"长官镇"},{"id":"371423","parentId":"3714","areaCode":"371423","name":"庆云县"},{"id":"371424100","parentId":"371424","areaCode":"371424100","name":"临邑镇"},{"id":"371426102","parentId":"371426","areaCode":"371426102","name":"前曹镇"},{"id":"371481004","parentId":"371481","areaCode":"371481004","name":"郭家街道"},{"id":"371482102","parentId":"371482","areaCode":"371482102","name":"张庄镇"},{"id":"371499101","parentId":"371499","areaCode":"371499101","name":"抬头寺镇"},{"id":"371702004","parentId":"371702","areaCode":"371702004","name":"北城街道"},{"id":"370302007","parentId":"370302","areaCode":"370302007","name":"将军路街道"},{"id":"370304102","parentId":"370304","areaCode":"370304102","name":"域城镇"},{"id":"370306","parentId":"3703","areaCode":"370306","name":"周村区"},{"id":"370306004","parentId":"370306","areaCode":"370306004","name":"永安街道"},{"id":"370321103","parentId":"370321","areaCode":"370321103","name":"田庄镇"},{"id":"370322102","parentId":"370322","areaCode":"370322102","name":"高城镇"},{"id":"370323104","parentId":"370323","areaCode":"370323104","name":"悦庄镇"},{"id":"371102101","parentId":"371102","areaCode":"371102101","name":"河山镇"},{"id":"371122104","parentId":"371122","areaCode":"371122104","name":"夏庄镇"},{"id":"370702004","parentId":"370702","areaCode":"370702004","name":"北关街道"},{"id":"371103105","parentId":"371103","areaCode":"371103105","name":"巨峰镇"},{"id":"371122","parentId":"3711","areaCode":"371122","name":"莒县"},{"id":"370790401","parentId":"370790","areaCode":"370790401","name":"新昌街道"},{"id":"370213004","parentId":"370213","areaCode":"370213004","name":"兴华路街道"},{"id":"370406103","parentId":"370406","areaCode":"370406103","name":"桑村镇"},{"id":"370705004","parentId":"370705","areaCode":"370705004","name":"廿里堡街道"},{"id":"371502004","parentId":"371502","areaCode":"371502004","name":"湖西街道"},{"id":"371521101","parentId":"371521","areaCode":"371521101","name":"阿城镇"},{"id":"371522004","parentId":"371522","areaCode":"371522004","name":"燕塔街道"},{"id":"371523","parentId":"3715","areaCode":"371523","name":"茌平县"},{"id":"371523101","parentId":"371523","areaCode":"371523101","name":"乐平铺镇"},{"id":"371524102","parentId":"371524","areaCode":"371524102","name":"牛角店镇"},{"id":"371526101","parentId":"371526","areaCode":"371526101","name":"梁村镇"},{"id":"371581004","parentId":"371581","areaCode":"371581004","name":"大辛庄街道"},{"id":"370112004","parentId":"370112","areaCode":"370112004","name":"全福街道"},{"id":"370124103","parentId":"370124","areaCode":"370124103","name":"孝直镇"},{"id":"370125101","parentId":"370125","areaCode":"370125101","name":"垛石镇 "},{"id":"370923102","parentId":"370923","areaCode":"370923102","name":"彭集街道"},{"id":"371328103","parentId":"371328","areaCode":"371328103","name":"坦埠镇"},{"id":"370404101","parentId":"370404","areaCode":"370404101","name":"阴平镇"},{"id":"371525101","parentId":"371525","areaCode":"371525101","name":"贾镇"},{"id":"370683004","parentId":"370683","areaCode":"370683004","name":"城港路街道"},{"id":"370883101","parentId":"370883","areaCode":"370883101","name":"香城镇"},{"id":"370402004","parentId":"370402","areaCode":"370402004","name":"文化路街道"},{"id":"370405","parentId":"3704","areaCode":"370405","name":"台儿庄区"},{"id":"370105","parentId":"3701","areaCode":"370105","name":"天桥区"},{"id":"370105005","parentId":"370105","areaCode":"370105005","name":"南村街道"},{"id":"370923","parentId":"3709","areaCode":"370923","name":"东平县"},{"id":"371425102","parentId":"371425","areaCode":"371425102","name":"焦庙镇"},{"id":"371428104","parentId":"371428","areaCode":"371428104","name":"郝王庄镇"},{"id":"370902004","parentId":"370902","areaCode":"370902004","name":"上高街道"},{"id":"370828103","parentId":"370828","areaCode":"370828103","name":"肖云镇"},{"id":"370829103","parentId":"370829","areaCode":"370829103","name":"卧龙山镇"},{"id":"370830102","parentId":"370830","areaCode":"370830102","name":"南旺镇"},{"id":"370831102","parentId":"370831","areaCode":"370831102","name":"星村镇"},{"id":"371728102","parentId":"371728","areaCode":"371728102","name":"刘楼镇"},{"id":"371302003","parentId":"371302","areaCode":"371302003","name":"金雀山街道"},{"id":"370725019","parentId":"370725","areaCode":"370725019","name":"城南街道"},{"id":"371324103","parentId":"371324","areaCode":"371324103","name":"长城镇"},{"id":"371723102","parentId":"371723","areaCode":"371723102","name":"天宫庙镇"},{"id":"371721101","parentId":"371721","areaCode":"371721101","name":"庄寨镇"},{"id":"370704005","parentId":"370704","areaCode":"370704005","name":"九龙街道"},{"id":"370405103","parentId":"370405","areaCode":"370405103","name":"泥沟镇"},{"id":"370104004","parentId":"370104","areaCode":"370104004","name":"西市场街道"},{"id":"370703004","parentId":"370703","areaCode":"370703004","name":"高里街道"},{"id":"370190004","parentId":"370190","areaCode":"370190004","name":"章锦街道"},{"id":"371622102","parentId":"371622","areaCode":"371622102","name":"温店镇"},{"id":"371402005","parentId":"371402","areaCode":"371402005","name":"广川街道"},{"id":"370305004","parentId":"370305","areaCode":"370305004","name":"稷下街道"},{"id":"371321103","parentId":"371321","areaCode":"371321103","name":"双堠镇"},{"id":"370612004","parentId":"370612","areaCode":"370612004","name":"姜格庄街道"},{"id":"371427101","parentId":"371427","areaCode":"371427101","name":"苏留庄镇"},{"id":"371423101","parentId":"371423","areaCode":"371423101","name":"常家镇"},{"id":"370403103","parentId":"370403","areaCode":"370403103","name":"邹坞镇"},{"id":"370686101","parentId":"370686","areaCode":"370686101","name":"观里镇"},{"id":"371322103","parentId":"371322","areaCode":"371322103","name":"李庄镇"},{"id":"371323103","parentId":"371323","areaCode":"371323103","name":"许家湖镇"},{"id":"370282004","parentId":"370282","areaCode":"370282004","name":"北安街道"},{"id":"370832102","parentId":"370832","areaCode":"370832102","name":"韩岗镇"},{"id":"370881004","parentId":"370881","areaCode":"370881004","name":"时庄街道"},{"id":"370303005","parentId":"370303","areaCode":"370303005","name":"科苑街道"},{"id":"370602004","parentId":"370602","areaCode":"370602004","name":"通伸街道"},{"id":"371002100","parentId":"371002","areaCode":"371002100","name":"张村镇"},{"id":"371081100","parentId":"371081","areaCode":"371081100","name":"文登营镇"},{"id":"371082004","parentId":"371082","areaCode":"371082004","name":"王连街道"},{"id":"371083102","parentId":"371083","areaCode":"371083102","name":"海阳所镇"},{"id":"371602004","parentId":"371602","areaCode":"371602004","name":"市东街道"},{"id":"370611004","parentId":"370611","areaCode":"370611004","name":"东厅街道"},{"id":"371121104","parentId":"371121","areaCode":"371121104","name":"许孟镇"},{"id":"370103006","parentId":"370103","areaCode":"370103006","name":"魏家庄街道 "},{"id":"370102004","parentId":"370102","areaCode":"370102004","name":"泉城路街道"},{"id":"370685004","parentId":"370685","areaCode":"370685004","name":"温泉街道"},{"id":"370687004","parentId":"370687","areaCode":"370687004","name":"龙山街道"},{"id":"370690006","parentId":"370690","areaCode":"370690006","name":"大季家街道"},{"id":"370802004","parentId":"370802","areaCode":"370802004","name":"越河街道"},{"id":"370811005","parentId":"370811","areaCode":"370811005","name":"李营街道"},{"id":"370826102","parentId":"370826","areaCode":"370826102","name":"欢城镇"},{"id":"370827","parentId":"3708","areaCode":"370827","name":"鱼台县"},{"id":"370827102","parentId":"370827","areaCode":"370827102","name":"鱼城镇"},{"id":"371623102","parentId":"371623","areaCode":"371623102","name":"碣石山镇"},{"id":"371624102","parentId":"371624","areaCode":"371624102","name":"古城镇"},{"id":"371625101","parentId":"371625","areaCode":"371625101","name":"曹王镇"},{"id":"371626004","parentId":"371626","areaCode":"371626004","name":"好生街道"},{"id":"371203102","parentId":"371203","areaCode":"371203102","name":"里辛镇"},{"id":"3705","parentId":"37","areaCode":"3705","name":"东营市"},{"id":"370502003","parentId":"370502","areaCode":"370502003","name":"东城街道"},{"id":"370503101","parentId":"370503","areaCode":"370503101","name":"仙河镇"},{"id":"370521101","parentId":"370521","areaCode":"370521101","name":"胜坨镇"},{"id":"370522","parentId":"3705","areaCode":"370522","name":"利津县"},{"id":"370522103","parentId":"370522","areaCode":"370522103","name":"陈庄镇"},{"id":"370784104","parentId":"370784","areaCode":"370784104","name":"官庄镇"},{"id":"370785100","parentId":"370785","areaCode":"370785100","name":"柏城镇"},{"id":"371724103","parentId":"371724","areaCode":"371724103","name":"柳林镇"},{"id":"371725103","parentId":"371725","areaCode":"371725103","name":"侯咽集镇"},{"id":"370921103","parentId":"370921","areaCode":"370921103","name":"伏山镇"},{"id":"370828","parentId":"3708","areaCode":"370828","name":"金乡县"},{"id":"370829104","parentId":"370829","areaCode":"370829104","name":"疃里镇"},{"id":"370285007","parentId":"370285","areaCode":"370285007","name":"沽河街道"},{"id":"371602005","parentId":"371602","areaCode":"371602005","name":"彭李街道"},{"id":"370725020","parentId":"370725","areaCode":"370725020","name":"五图街道"},{"id":"370784107","parentId":"370784","areaCode":"370784107","name":"大盛镇"},{"id":"370405104","parentId":"370405","areaCode":"370405104","name":"张山子镇"},{"id":"370404102","parentId":"370404","areaCode":"370404102","name":"底阁镇"},{"id":"371721102","parentId":"371721","areaCode":"371721102","name":"普连集镇"},{"id":"371424102","parentId":"371424","areaCode":"371424102","name":"临南镇"},{"id":"370302104","parentId":"370302","areaCode":"370302104","name":"岭子镇"},{"id":"370304103","parentId":"370304","areaCode":"370304103","name":"白塔镇"},{"id":"371428105","parentId":"371428","areaCode":"371428105","name":"鲁权屯镇"},{"id":"371311007","parentId":"371311","areaCode":"371311007","name":"高都办事处"},{"id":"371323104","parentId":"371323","areaCode":"371323104","name":"黄山铺镇"},{"id":"370112005","parentId":"370112","areaCode":"370112005","name":"荷花路街道"},{"id":"371421103","parentId":"371421","areaCode":"371421103","name":"宋家镇"},{"id":"371525102","parentId":"371525","areaCode":"371525102","name":"桑阿镇"},{"id":"370282005","parentId":"370282","areaCode":"370282005","name":"龙山街道"},{"id":"371202101","parentId":"371202","areaCode":"371202101","name":"羊里镇"},{"id":"370786102","parentId":"370786","areaCode":"370786102","name":"龙池镇"},{"id":"371624103","parentId":"371624","areaCode":"371624103","name":"冯家镇"},{"id":"370681005","parentId":"370681","areaCode":"370681005","name":"东江街道"},{"id":"370682005","parentId":"370682","areaCode":"370682005","name":"柏林庄街道"},{"id":"370323105","parentId":"370323","areaCode":"370323105","name":"西里镇"},{"id":"371728103","parentId":"371728","areaCode":"371728103","name":"陆圈镇"},{"id":"371481100","parentId":"371481","areaCode":"371481100","name":"杨安镇"},{"id":"371302004","parentId":"371302","areaCode":"371302004","name":"南坊街道"},{"id":"370685005","parentId":"370685","areaCode":"370685005","name":"大秦家街道"},{"id":"370830103","parentId":"370830","areaCode":"370830103","name":"次丘镇"},{"id":"370832103","parentId":"370832","areaCode":"370832103","name":"黑虎庙镇"},{"id":"370881101","parentId":"370881","areaCode":"370881101","name":"吴村镇"},{"id":"370612005","parentId":"370612","areaCode":"370612005","name":"大窑街道"},{"id":"371081101","parentId":"371081","areaCode":"371081101","name":"大水泊镇"},{"id":"371090","parentId":"3710","areaCode":"371090","name":"经济技术开"},{"id":"371621103","parentId":"371621","areaCode":"371621103","name":"淄角镇"},{"id":"370702005","parentId":"370702","areaCode":"370702005","name":"于河街道"},{"id":"371727103","parentId":"371727","areaCode":"371727103","name":"张湾镇"},{"id":"371702005","parentId":"371702","areaCode":"371702005","name":"牡丹街道"},{"id":"371622103","parentId":"371622","areaCode":"371622103","name":"河流镇"},{"id":"370686102","parentId":"370686","areaCode":"370686102","name":"蛇窝泊镇"},{"id":"370687102","parentId":"370687","areaCode":"370687102","name":"留格庄镇"},{"id":"370802006","parentId":"370802","areaCode":"370802006","name":"观音阁街道"},{"id":"370811006","parentId":"370811","areaCode":"370811006","name":"廿里铺街道"},{"id":"370826103","parentId":"370826","areaCode":"370826103","name":"南阳镇"},{"id":"371623103","parentId":"371623","areaCode":"371623103","name":"小泊头镇"},{"id":"371624","parentId":"3716","areaCode":"371624","name":"沾化县"},{"id":"371625102","parentId":"371625","areaCode":"371625102","name":"兴福镇"},{"id":"371626101","parentId":"371626","areaCode":"371626101","name":"长山镇"},{"id":"3706","parentId":"37","areaCode":"3706","name":"烟台市"},{"id":"371203103","parentId":"371203","areaCode":"371203103","name":"辛庄镇"},{"id":"370502004","parentId":"370502","areaCode":"370502004","name":"辛店街道"},{"id":"370503102","parentId":"370503","areaCode":"370503102","name":"孤岛镇"},{"id":"370521102","parentId":"370521","areaCode":"370521102","name":"郝家镇"},{"id":"370522104","parentId":"370522","areaCode":"370522104","name":"汀罗镇"},{"id":"370523","parentId":"3705","areaCode":"370523","name":"广饶县"},{"id":"370523106","parentId":"370523","areaCode":"370523106","name":"李鹊镇"},{"id":"370634203","parentId":"370634","areaCode":"370634203","name":"大钦岛乡"},{"id":"370683005","parentId":"370683","areaCode":"370683005","name":"文峰路街道"},{"id":"371723103","parentId":"371723","areaCode":"371723103","name":"汶上集镇"},{"id":"371724","parentId":"3717","areaCode":"371724","name":"巨野县"},{"id":"371726103","parentId":"371726","areaCode":"371726103","name":"旧城镇"},{"id":"370704006","parentId":"370704","areaCode":"370704006","name":"黄旗堡街道"},{"id":"370705005","parentId":"370705","areaCode":"370705005","name":"潍州路街道"},{"id":"370724","parentId":"3707","areaCode":"370724","name":"临朐县"},{"id":"370724104","parentId":"370724","areaCode":"370724104","name":"寺头镇"},{"id":"370781100","parentId":"370781","areaCode":"370781100","name":"弥河镇"},{"id":"370782102","parentId":"370782","areaCode":"370782102","name":"贾悦镇"},{"id":"370783006","parentId":"370783","areaCode":"370783006","name":"古城街道"},{"id":"371090101","parentId":"371090","areaCode":"371090101","name":"泊于镇"},{"id":"370882102","parentId":"370882","areaCode":"370882102","name":"新驿镇"},{"id":"370883102","parentId":"370883","areaCode":"370883102","name":"城前镇"},{"id":"371422103","parentId":"371422","areaCode":"371422103","name":"杜集镇"},{"id":"371423102","parentId":"371423","areaCode":"371423102","name":"尚堂镇"},{"id":"371424","parentId":"3714","areaCode":"371424","name":"临邑县"},{"id":"371425103","parentId":"371425","areaCode":"371425103","name":"赵官镇"},{"id":"371426103","parentId":"371426","areaCode":"371426103","name":"恩城镇"},{"id":"371499102","parentId":"371499","areaCode":"371499102","name":"袁桥镇"},{"id":"370303006","parentId":"370303","areaCode":"370303006","name":"体育场街道"},{"id":"370305005","parentId":"370305","areaCode":"370305005","name":"齐陵街道"},{"id":"370306005","parentId":"370306","areaCode":"370306005","name":"城北街道"},{"id":"370321","parentId":"3703","areaCode":"370321","name":"桓台县"},{"id":"370321104","parentId":"370321","areaCode":"370321104","name":"荆家镇"},{"id":"370322103","parentId":"370322","areaCode":"370322103","name":"黑里寨镇"},{"id":"371102111","parentId":"371102","areaCode":"371102111","name":"后村镇"},{"id":"371121105","parentId":"371121","areaCode":"371121105","name":"于里镇"},{"id":"371199","parentId":"3711","areaCode":"371199","name":"开发区"},{"id":"371122105","parentId":"371122","areaCode":"371122105","name":"刘官庄镇"},{"id":"370202007","parentId":"370202","areaCode":"370202007","name":"江苏路街道"},{"id":"370406104","parentId":"370406","areaCode":"370406104","name":"北庄镇"},{"id":"371502005","parentId":"371502","areaCode":"371502005","name":"凤凰街道"},{"id":"371521102","parentId":"371521","areaCode":"371521102","name":"七级镇"},{"id":"371526102","parentId":"371526","areaCode":"371526102","name":"尹集镇"},{"id":"371581101","parentId":"371581","areaCode":"371581101","name":"松林镇"},{"id":"370112","parentId":"3701","areaCode":"370112","name":"历城区"},{"id":"370113101","parentId":"370113","areaCode":"370113101","name":"归德镇 "},{"id":"370124104","parentId":"370124","areaCode":"370124104","name":"孔村镇 "},{"id":"370125102","parentId":"370125","areaCode":"370125102","name":"孙耿镇"},{"id":"370126105","parentId":"370126","areaCode":"370126105","name":"郑路镇"},{"id":"370181005","parentId":"370181","areaCode":"370181005","name":"埠村街道"},{"id":"370911102","parentId":"370911","areaCode":"370911102","name":"范镇"},{"id":"370982103","parentId":"370982","areaCode":"370982103","name":"翟镇"},{"id":"370983103","parentId":"370983","areaCode":"370983103","name":"桃园镇"},{"id":"371324104","parentId":"371324","areaCode":"371324104","name":"磨山镇"},{"id":"371325106","parentId":"371325","areaCode":"371325106","name":"朱田镇"},{"id":"371326104","parentId":"371326","areaCode":"371326104","name":"柏林镇"},{"id":"371327107","parentId":"371327","areaCode":"371327107","name":"洙边镇"},{"id":"370402005","parentId":"370402","areaCode":"370402005","name":"龙山路街道"},{"id":"371522101","parentId":"371522","areaCode":"371522101","name":"张鲁镇"},{"id":"371523102","parentId":"371523","areaCode":"371523102","name":"冯官屯镇"},{"id":"371524","parentId":"3715","areaCode":"371524","name":"东阿县"},{"id":"371524103","parentId":"371524","areaCode":"371524103","name":"大桥镇"},{"id":"371599101","parentId":"371599","areaCode":"371599101","name":"顾官屯镇"},{"id":"370684005","parentId":"370684","areaCode":"370684005","name":"南王街道"},{"id":"370827103","parentId":"370827","areaCode":"370827103","name":"王鲁镇"},{"id":"370828104","parentId":"370828","areaCode":"370828104","name":"鸡黍镇"},{"id":"370831103","parentId":"370831","areaCode":"370831103","name":"柘沟镇"},{"id":"371402101","parentId":"371402","areaCode":"371402101","name":"黄河涯镇"},{"id":"371427102","parentId":"371427","areaCode":"371427102","name":"新盛店镇"},{"id":"371482103","parentId":"371482","areaCode":"371482103","name":"辛店镇"},{"id":"370403104","parentId":"370403","areaCode":"370403104","name":"陶庄镇"},{"id":"370406","parentId":"3704","areaCode":"370406","name":"山亭区"},{"id":"370102005","parentId":"370102","areaCode":"370102005","name":"大明湖街道"},{"id":"370103008","parentId":"370103","areaCode":"370103008","name":"二七街道 "},{"id":"370104005","parentId":"370104","areaCode":"370104005","name":"五里沟街道 "},{"id":"370105006","parentId":"370105","areaCode":"370105006","name":"堤口街道"},{"id":"370923106","parentId":"370923","areaCode":"370923106","name":"老湖镇"},{"id":"370982","parentId":"3709","areaCode":"370982","name":"新泰市"},{"id":"370703005","parentId":"370703","areaCode":"370703005","name":"朱里街道"},{"id":"370785103","parentId":"370785","areaCode":"370785103","name":"夏庄镇"},{"id":"371002101","parentId":"371002","areaCode":"371002101","name":"羊亭镇"},{"id":"371082005","parentId":"371082","areaCode":"371082005","name":"桃园街道"},{"id":"371083103","parentId":"371083","areaCode":"371083103","name":"白沙滩镇"},{"id":"370602005","parentId":"370602","areaCode":"370602005","name":"凤凰台街道"},{"id":"370611102","parentId":"370611","areaCode":"370611102","name":"高疃镇"},{"id":"370613005","parentId":"370613","areaCode":"370613005","name":"解甲庄街道"},{"id":"370634","parentId":"3706","areaCode":"370634","name":"长岛县"},{"id":"371722101","parentId":"371722","areaCode":"371722101","name":"郭村镇"},{"id":"370211005","parentId":"370211","areaCode":"370211005","name":"长江路街道"},{"id":"370481091","parentId":"370481","areaCode":"370481091","name":"东沙河镇"},{"id":"370213005","parentId":"370213","areaCode":"370213005","name":"兴城路街道"},{"id":"370214005","parentId":"370214","areaCode":"370214005","name":"上马街道"},{"id":"370283100","parentId":"370283","areaCode":"370283100","name":"白沙河街道"},{"id":"370902005","parentId":"370902","areaCode":"370902005","name":"徐家楼街道"},{"id":"371312005","parentId":"371312","areaCode":"371312005","name":"凤凰岭街道"},{"id":"371321104","parentId":"371321","areaCode":"371321104","name":"青驼镇"},{"id":"371322","parentId":"3713","areaCode":"371322","name":"郯城县"},{"id":"371322105","parentId":"371322","areaCode":"371322105","name":"杨集镇"},{"id":"371323","parentId":"3713","areaCode":"371323","name":"沂水县"},{"id":"371328104","parentId":"371328","areaCode":"371328104","name":"垛庄镇"},{"id":"371329103","parentId":"371329","areaCode":"371329103","name":"石门镇"},{"id":"370212","parentId":"3702","areaCode":"370212","name":"崂山区"},{"id":"370124105","parentId":"370124","areaCode":"370124105","name":"洪范池镇 "},{"id":"370203006","parentId":"370203","areaCode":"370203006","name":"登州路街道"},{"id":"370213006","parentId":"370213","areaCode":"370213006","name":"李村街道"},{"id":"370214006","parentId":"370214","areaCode":"370214006","name":"红岛街道"},{"id":"370283101","parentId":"370283","areaCode":"370283101","name":"古岘镇"},{"id":"370284006","parentId":"370284","areaCode":"370284006","name":"铁山街道"},{"id":"370902100","parentId":"370902","areaCode":"370902100","name":"省庄镇"},{"id":"370911103","parentId":"370911","areaCode":"370911103","name":"角峪镇"},{"id":"370921105","parentId":"370921","areaCode":"370921105","name":"罡城镇"},{"id":"371302101","parentId":"371302","areaCode":"371302101","name":"白沙埠镇"},{"id":"371311101","parentId":"371311","areaCode":"371311101","name":"沂堂镇"},{"id":"371321105","parentId":"371321","areaCode":"371321105","name":"张庄镇"},{"id":"371322107","parentId":"371322","areaCode":"371322107","name":"港上镇"},{"id":"371323106","parentId":"371323","areaCode":"371323106","name":"诸葛镇"},{"id":"371324","parentId":"3713","areaCode":"371324","name":"苍山县"},{"id":"371324105","parentId":"371324","areaCode":"371324105","name":"神山镇"},{"id":"371325107","parentId":"371325","areaCode":"371325107","name":"梁邱镇"},{"id":"371326105","parentId":"371326","areaCode":"371326105","name":"卞桥镇"},{"id":"371328105","parentId":"371328","areaCode":"371328105","name":"高都镇"},{"id":"370211006","parentId":"370211","areaCode":"370211006","name":"红石崖街道"},{"id":"370213","parentId":"3702","areaCode":"370213","name":"李沧区"},{"id":"371727104","parentId":"371727","areaCode":"371727104","name":"黄店镇"},{"id":"370725","parentId":"3707","areaCode":"370725","name":"昌乐县"},{"id":"370725107","parentId":"370725","areaCode":"370725107","name":"乔官镇"},{"id":"370781101","parentId":"370781","areaCode":"370781101","name":"王坟镇"},{"id":"370782105","parentId":"370782","areaCode":"370782105","name":"石桥子镇"},{"id":"371091","parentId":"3710","areaCode":"371091","name":"高新技术开"},{"id":"371202102","parentId":"371202","areaCode":"371202102","name":"方下镇"},{"id":"370202009","parentId":"370202","areaCode":"370202009","name":"八大关街道"},{"id":"371402102","parentId":"371402","areaCode":"371402102","name":"二屯镇"},{"id":"371421104","parentId":"371421","areaCode":"371421104","name":"徽王庄镇"},{"id":"371422104","parentId":"371422","areaCode":"371422104","name":"保店镇"},{"id":"371423103","parentId":"371423","areaCode":"371423103","name":"崔口镇"},{"id":"371424103","parentId":"371424","areaCode":"371424103","name":"德平镇"},{"id":"371425","parentId":"3714","areaCode":"371425","name":"齐河县"},{"id":"371425104","parentId":"371425","areaCode":"371425104","name":"祝阿镇"},{"id":"371702009","parentId":"371702","areaCode":"371702009","name":"万福街道"},{"id":"371721103","parentId":"371721","areaCode":"371721103","name":"青固集镇"},{"id":"371599200","parentId":"371599","areaCode":"371599200","name":"韩集乡"},{"id":"370304106","parentId":"370304","areaCode":"370304106","name":"八陡镇"},{"id":"370305100","parentId":"370305","areaCode":"370305100","name":"齐都镇"},{"id":"370322","parentId":"3703","areaCode":"370322","name":"高青县"},{"id":"371103111","parentId":"371103","areaCode":"371103111","name":"黄墩镇"},{"id":"371122106","parentId":"371122","areaCode":"371122106","name":"峤山镇"},{"id":"3707","parentId":"37","areaCode":"3707","name":"潍坊市"},{"id":"370702006","parentId":"370702","areaCode":"370702006","name":"望留街道"},{"id":"370303007","parentId":"370303","areaCode":"370303007","name":"杏园街道"},{"id":"370406105","parentId":"370406","areaCode":"370406105","name":"城头镇"},{"id":"370481","parentId":"3704","areaCode":"370481","name":"滕州市"},{"id":"371502006","parentId":"371502","areaCode":"371502006","name":"闫寺街道"},{"id":"371521103","parentId":"371521","areaCode":"371521103","name":"安乐镇"},{"id":"371522102","parentId":"371522","areaCode":"371522102","name":"朝城镇"},{"id":"371523103","parentId":"371523","areaCode":"371523103","name":"菜屯镇"},{"id":"371524104","parentId":"371524","areaCode":"371524104","name":"高集镇"},{"id":"371525","parentId":"3715","areaCode":"371525","name":"冠县"},{"id":"371525103","parentId":"371525","areaCode":"371525103","name":"柳林镇"},{"id":"370112006","parentId":"370112","areaCode":"370112006","name":"鲍山街道"},{"id":"370113","parentId":"3701","areaCode":"370113","name":"长清区"},{"id":"370113102","parentId":"370113","areaCode":"370113102","name":"孝里镇"},{"id":"371329104","parentId":"371329","areaCode":"371329104","name":"曹庄镇"},{"id":"371526103","parentId":"371526","areaCode":"371526103","name":"清平镇"},{"id":"371581102","parentId":"371581","areaCode":"371581102","name":"老赵庄镇"},{"id":"370829","parentId":"3708","areaCode":"370829","name":"嘉祥县"},{"id":"370829105","parentId":"370829","areaCode":"370829105","name":"马村镇"},{"id":"370881102","parentId":"370881","areaCode":"370881102","name":"姚村镇"},{"id":"371481101","parentId":"371481","areaCode":"371481101","name":"朱集镇"},{"id":"370402006","parentId":"370402","areaCode":"370402006","name":"光明路街道"},{"id":"370404103","parentId":"370404","areaCode":"370404103","name":"榴园镇"},{"id":"370405105","parentId":"370405","areaCode":"370405105","name":"马兰屯镇"},{"id":"370102006","parentId":"370102","areaCode":"370102006","name":"东关街道"},{"id":"370103009","parentId":"370103","areaCode":"370103009","name":"七里山街道"},{"id":"370104006","parentId":"370104","areaCode":"370104006","name":"营市街街道 "},{"id":"370105007","parentId":"370105","areaCode":"370105007","name":"北坦街道 "},{"id":"370923107","parentId":"370923","areaCode":"370923107","name":"银山镇"},{"id":"370982104","parentId":"370982","areaCode":"370982104","name":"泉沟镇"},{"id":"370983","parentId":"3709","areaCode":"370983","name":"肥城市"},{"id":"370983104","parentId":"370983","areaCode":"370983104","name":"王庄镇"},{"id":"370705006","parentId":"370705","areaCode":"370705006","name":"北苑街道"},{"id":"370783100","parentId":"370783","areaCode":"370783100","name":"化龙镇"},{"id":"370784111","parentId":"370784","areaCode":"370784111","name":"石埠子镇"},{"id":"371081102","parentId":"371081","areaCode":"371081102","name":"张家产镇"},{"id":"370612006","parentId":"370612","areaCode":"370612006","name":"武宁街道"},{"id":"370634204","parentId":"370634","areaCode":"370634204","name":"小钦岛乡"},{"id":"370681","parentId":"3706","areaCode":"370681","name":"龙口市"},{"id":"370681102","parentId":"370681","areaCode":"370681102","name":"黄山馆镇"},{"id":"371426104","parentId":"371426","areaCode":"371426104","name":"王庙镇"},{"id":"371427103","parentId":"371427","areaCode":"371427103","name":"雷集镇"},{"id":"371482104","parentId":"371482","areaCode":"371482104","name":"安仁镇"},{"id":"370827104","parentId":"370827","areaCode":"370827104","name":"张黄镇"},{"id":"370828106","parentId":"370828","areaCode":"370828106","name":"王丕镇"},{"id":"370830104","parentId":"370830","areaCode":"370830104","name":"寅寺镇"},{"id":"370831104","parentId":"370831","areaCode":"370831104","name":"金庄镇"},{"id":"371624104","parentId":"371624","areaCode":"371624104","name":"泊头镇"},{"id":"370481021","parentId":"370481","areaCode":"370481021","name":"大坞镇"},{"id":"371728104","parentId":"371728","areaCode":"371728104","name":"马头镇"},{"id":"371722102","parentId":"371722","areaCode":"371722102","name":"黄岗镇"},{"id":"370832104","parentId":"370832","areaCode":"370832104","name":"拳铺镇"},{"id":"370882103","parentId":"370882","areaCode":"370882103","name":"颜店镇"},{"id":"371312104","parentId":"371312","areaCode":"371312104","name":"汤河镇"},{"id":"370883103","parentId":"370883","areaCode":"370883103","name":"大束镇"},{"id":"370321105","parentId":"370321","areaCode":"370321105","name":"马桥镇"},{"id":"370322104","parentId":"370322","areaCode":"370322104","name":"唐坊镇"},{"id":"370323106","parentId":"370323","areaCode":"370323106","name":"大张庄镇"},{"id":"371121106","parentId":"371121","areaCode":"371121106","name":"汪湖镇"},{"id":"370282101","parentId":"370282","areaCode":"370282101","name":"岙山街道"},{"id":"370521104","parentId":"370521","areaCode":"370521104","name":"永安镇"},{"id":"370522105","parentId":"370522","areaCode":"370522105","name":"盐窝镇"},{"id":"371602007","parentId":"371602","areaCode":"371602007","name":"滨北街道"},{"id":"370686103","parentId":"370686","areaCode":"370686103","name":"唐家泊镇"},{"id":"371428106","parentId":"371428","areaCode":"371428106","name":"四女寺镇"},{"id":"371327108","parentId":"371327","areaCode":"371327108","name":"文疃镇"},{"id":"370785104","parentId":"370785","areaCode":"370785104","name":"姜庄镇"},{"id":"370685101","parentId":"370685","areaCode":"370685101","name":"辛庄镇"},{"id":"371090102","parentId":"371090","areaCode":"371090102","name":"桥头镇"},{"id":"370704007","parentId":"370704","areaCode":"370704007","name":"经济发展区"},{"id":"370125103","parentId":"370125","areaCode":"370125103","name":"曲堤镇 "},{"id":"371106","parentId":"3711","areaCode":"371106","name":"山海天"},{"id":"370181006","parentId":"370181","areaCode":"370181006","name":"圣井街道 "},{"id":"370126106","parentId":"370126","areaCode":"370126106","name":"贾庄镇"},{"id":"370306100","parentId":"370306","areaCode":"370306100","name":"北郊镇"},{"id":"370602006","parentId":"370602","areaCode":"370602006","name":"奇山街道"},{"id":"370611103","parentId":"370611","areaCode":"370611103","name":"张格庄镇"},{"id":"371002102","parentId":"371002","areaCode":"371002102","name":"温泉镇"},{"id":"371082006","parentId":"371082","areaCode":"371082006","name":"宁津街道"},{"id":"371083104","parentId":"371083","areaCode":"371083104","name":"大孤山镇"},{"id":"371621104","parentId":"371621","areaCode":"371621104","name":"胡集镇"},{"id":"371622104","parentId":"371622","areaCode":"371622104","name":"翟王镇"},{"id":"370724105","parentId":"370724","areaCode":"370724105","name":"九山镇"},{"id":"370687103","parentId":"370687","areaCode":"370687103","name":"盘石店镇"},{"id":"370802008","parentId":"370802","areaCode":"370802008","name":"南苑街道"},{"id":"370811007","parentId":"370811","areaCode":"370811007","name":"接庄街道"},{"id":"370826104","parentId":"370826","areaCode":"370826104","name":"鲁桥镇"},{"id":"371623104","parentId":"371623","areaCode":"371623104","name":"埕口镇"},{"id":"371625","parentId":"3716","areaCode":"371625","name":"博兴县"},{"id":"371625103","parentId":"371625","areaCode":"371625103","name":"陈户镇"},{"id":"371626102","parentId":"371626","areaCode":"371626102","name":"魏桥镇"},{"id":"370502005","parentId":"370502","areaCode":"370502005","name":"胜利街道"},{"id":"370503103","parentId":"370503","areaCode":"370503103","name":"新户镇"},{"id":"370523107","parentId":"370523","areaCode":"370523107","name":"稻庄镇"},{"id":"370786104","parentId":"370786","areaCode":"370786104","name":"卜庄镇"},{"id":"370613006","parentId":"370613","areaCode":"370613006","name":"莱山街道"},{"id":"370682101","parentId":"370682","areaCode":"370682101","name":"沐浴店镇"},{"id":"370683006","parentId":"370683","areaCode":"370683006","name":"金仓街道"},{"id":"370684102","parentId":"370684","areaCode":"370684102","name":"刘家沟镇"},{"id":"371723104","parentId":"371723","areaCode":"371723104","name":"南鲁集镇"},{"id":"371724104","parentId":"371724","areaCode":"371724104","name":"章缝镇"},{"id":"371725","parentId":"3717","areaCode":"371725","name":"郓城县"},{"id":"371725104","parentId":"371725","areaCode":"371725104","name":"武安镇"},{"id":"371726104","parentId":"371726","areaCode":"371726104","name":"阎什镇"},{"id":"370990","parentId":"3709","areaCode":"370990","name":"高新技术开发区"},{"id":"371302102","parentId":"371302","areaCode":"371302102","name":"枣沟头镇"},{"id":"371311102","parentId":"371311","areaCode":"371311102","name":"褚墩镇"},{"id":"371322108","parentId":"371322","areaCode":"371322108","name":"高峰头镇"},{"id":"371323107","parentId":"371323","areaCode":"371323107","name":"崔家峪镇"},{"id":"371324106","parentId":"371324","areaCode":"371324106","name":"车辋镇"},{"id":"371325","parentId":"3713","areaCode":"371325","name":"费县"},{"id":"371327111","parentId":"371327","areaCode":"371327111","name":"石莲子镇"},{"id":"370124","parentId":"3701","areaCode":"370124","name":"平阴县 "},{"id":"370181101","parentId":"370181","areaCode":"370181101","name":"普集镇 "},{"id":"370213007","parentId":"370213","areaCode":"370213007","name":"虎山路街道"},{"id":"370214","parentId":"3702","areaCode":"370214","name":"城阳区"},{"id":"370214007","parentId":"370214","areaCode":"370214007","name":"河套街道"},{"id":"370281007","parentId":"370281","areaCode":"370281007","name":"胶东街道"},{"id":"370283102","parentId":"370283","areaCode":"370283102","name":"仁兆镇"},{"id":"370284102","parentId":"370284","areaCode":"370284102","name":"琅琊镇"},{"id":"370285101","parentId":"370285","areaCode":"370285101","name":"姜山镇"},{"id":"370911104","parentId":"370911","areaCode":"370911104","name":"徂徕镇"},{"id":"370921107","parentId":"370921","areaCode":"370921107","name":"蒋集镇"},{"id":"370983105","parentId":"370983","areaCode":"370983105","name":"湖屯镇"},{"id":"370724107","parentId":"370724","areaCode":"370724107","name":"辛寨镇"},{"id":"370782108","parentId":"370782","areaCode":"370782108","name":"相州镇"},{"id":"370786108","parentId":"370786","areaCode":"370786108","name":"饮马镇"},{"id":"371621105","parentId":"371621","areaCode":"371621105","name":"李庄镇"},{"id":"370682102","parentId":"370682","areaCode":"370682102","name":"团旺镇"},{"id":"370683101","parentId":"370683","areaCode":"370683101","name":"沙河镇"},{"id":"370883104","parentId":"370883","areaCode":"370883104","name":"北宿镇"},{"id":"370403106","parentId":"370403","areaCode":"370403106","name":"常庄镇"},{"id":"370102007","parentId":"370102","areaCode":"370102007","name":"文东街道"},{"id":"370103010","parentId":"370103","areaCode":"370103010","name":"六里山街道 "},{"id":"370104007","parentId":"370104","areaCode":"370104007","name":"青年公园街道 "},{"id":"370105009","parentId":"370105","areaCode":"370105009","name":"制锦市街道 "},{"id":"370112007","parentId":"370112","areaCode":"370112007","name":"唐冶街道 "},{"id":"370113103","parentId":"370113","areaCode":"370113103","name":"万德镇"},{"id":"370902101","parentId":"370902","areaCode":"370902101","name":"邱家店镇"},{"id":"370923108","parentId":"370923","areaCode":"370923108","name":"斑鸠店镇"},{"id":"370982105","parentId":"370982","areaCode":"370982105","name":"羊流镇"},{"id":"371328106","parentId":"371328","areaCode":"371328106","name":"野店镇"},{"id":"370404104","parentId":"370404","areaCode":"370404104","name":"峨山镇"},{"id":"371525104","parentId":"371525","areaCode":"371525104","name":"清水镇"},{"id":"371526","parentId":"3715","areaCode":"371526","name":"高唐县"},{"id":"371103112","parentId":"371103","areaCode":"371103112","name":"虎山镇"},{"id":"371121107","parentId":"371121","areaCode":"371121107","name":"叩官镇"},{"id":"370406106","parentId":"370406","areaCode":"370406106","name":"徐庄镇"},{"id":"370499","parentId":"3704","areaCode":"370499","name":"枣庄市高新"},{"id":"371521104","parentId":"371521","areaCode":"371521104","name":"寿张镇"},{"id":"371522103","parentId":"371522","areaCode":"371522103","name":"观城镇"},{"id":"371523104","parentId":"371523","areaCode":"371523104","name":"博平镇"},{"id":"371524105","parentId":"371524","areaCode":"371524105","name":"姜楼镇"},{"id":"371526104","parentId":"371526","areaCode":"371526104","name":"固河镇"},{"id":"371581103","parentId":"371581","areaCode":"371581103","name":"康庄镇"},{"id":"371599201","parentId":"371599","areaCode":"371599201","name":"广平乡"},{"id":"370302106","parentId":"370302","areaCode":"370302106","name":"双杨镇"},{"id":"370303100","parentId":"370303","areaCode":"370303100","name":"马尚镇"},{"id":"370305102","parentId":"370305","areaCode":"370305102","name":"皇城镇"},{"id":"370322105","parentId":"370322","areaCode":"370322105","name":"常家镇"},{"id":"370323","parentId":"3703","areaCode":"370323","name":"沂源县"},{"id":"370323107","parentId":"370323","areaCode":"370323107","name":"中庄镇"},{"id":"371102107","parentId":"371102","areaCode":"371102107","name":"西湖镇"},{"id":"370202010","parentId":"370202","areaCode":"370202010","name":"湛山街道"},{"id":"370203007","parentId":"370203","areaCode":"370203007","name":"延安路街道"},{"id":"370882105","parentId":"370882","areaCode":"370882105","name":"新兖镇"},{"id":"371422105","parentId":"371422","areaCode":"371422105","name":"大柳镇"},{"id":"371423104","parentId":"371423","areaCode":"371423104","name":"东辛店镇"},{"id":"371426","parentId":"3714","areaCode":"371426","name":"平原县"},{"id":"371428107","parentId":"371428","areaCode":"371428107","name":"甲马营镇"},{"id":"371481102","parentId":"371481","areaCode":"371481102","name":"黄夹镇"},{"id":"371482105","parentId":"371482","areaCode":"371482105","name":"辛寨镇"},{"id":"371702010","parentId":"371702","areaCode":"371702010","name":"何楼街道"},{"id":"371722103","parentId":"371722","areaCode":"371722103","name":"终兴镇"},{"id":"371723105","parentId":"371723","areaCode":"371723105","name":"伯乐集镇"},{"id":"371724105","parentId":"371724","areaCode":"371724105","name":"大谢集镇"},{"id":"371725105","parentId":"371725","areaCode":"371725105","name":"郭屯镇"},{"id":"371726","parentId":"3717","areaCode":"371726","name":"鄄城县"},{"id":"371728105","parentId":"371728","areaCode":"371728105","name":"三春集镇"},{"id":"370725108","parentId":"370725","areaCode":"370725108","name":"鄌郚镇"},{"id":"370781","parentId":"3707","areaCode":"370781","name":"青州市"},{"id":"370783103","parentId":"370783","areaCode":"370783103","name":"营里镇"},{"id":"371092","parentId":"3710","areaCode":"371092","name":"工业新区"},{"id":"371202103","parentId":"371202","areaCode":"371202103","name":"牛泉镇"},{"id":"370502006","parentId":"370502","areaCode":"370502006","name":"胜园街道"},{"id":"370521105","parentId":"370521","areaCode":"370521105","name":"黄河口镇"},{"id":"370522201","parentId":"370522","areaCode":"370522201","name":"明集乡"},{"id":"370784112","parentId":"370784","areaCode":"370784112","name":"石堆镇"},{"id":"371622105","parentId":"371622","areaCode":"371622105","name":"流坡坞镇"},{"id":"370613401","parentId":"370613","areaCode":"370613401","name":"莱山经济开发区"},{"id":"370634205","parentId":"370634","areaCode":"370634205","name":"南隍城乡"},{"id":"370681103","parentId":"370681","areaCode":"370681103","name":"北马镇"},{"id":"370682","parentId":"3706","areaCode":"370682","name":"莱阳市"},{"id":"370684103","parentId":"370684","areaCode":"370684103","name":"潮水镇"},{"id":"370685102","parentId":"370685","areaCode":"370685102","name":"蚕庄镇"},{"id":"370686104","parentId":"370686","areaCode":"370686104","name":"桃村镇"},{"id":"370687104","parentId":"370687","areaCode":"370687104","name":"郭城镇"},{"id":"3708","parentId":"37","areaCode":"3708","name":"济宁市"},{"id":"371624105","parentId":"371624","areaCode":"371624105","name":"大高镇"},{"id":"371625104","parentId":"371625","areaCode":"371625104","name":"湖滨镇"},{"id":"371626","parentId":"3716","areaCode":"371626","name":"邹平县"},{"id":"371626103","parentId":"371626","areaCode":"371626103","name":"西董镇"},{"id":"371002104","parentId":"371002","areaCode":"371002104","name":"孙家疃镇"},{"id":"371081103","parentId":"371081","areaCode":"371081103","name":"高村镇"},{"id":"371082101","parentId":"371082","areaCode":"371082101","name":"俚岛镇"},{"id":"371083105","parentId":"371083","areaCode":"371083105","name":"南黄镇"},{"id":"370125104","parentId":"370125","areaCode":"370125104","name":"仁风镇"},{"id":"370523108","parentId":"370523","areaCode":"370523108","name":"大码头镇"},{"id":"371326106","parentId":"371326","areaCode":"371326106","name":"地方镇"},{"id":"370124106","parentId":"370124","areaCode":"370124106","name":"玫瑰镇"},{"id":"371425105","parentId":"371425","areaCode":"371425105","name":"仁里集镇"},{"id":"370304108","parentId":"370304","areaCode":"370304108","name":"石马镇"},{"id":"370832105","parentId":"370832","areaCode":"370832105","name":"杨营镇"},{"id":"371122107","parentId":"371122","areaCode":"371122107","name":"小店镇"},{"id":"370705007","parentId":"370705","areaCode":"370705007","name":"广文街道"},{"id":"370781103","parentId":"370781","areaCode":"370781103","name":"庙子镇"},{"id":"371107","parentId":"3711","areaCode":"371107","name":"海洋城"},{"id":"370602007","parentId":"370602","areaCode":"370602007","name":"白石街道"},{"id":"370611104","parentId":"370611","areaCode":"370611104","name":"回里镇"},{"id":"370802009","parentId":"370802","areaCode":"370802009","name":"安居街道"},{"id":"370811102","parentId":"370811","areaCode":"370811102","name":"长沟镇"},{"id":"370826105","parentId":"370826","areaCode":"370826105","name":"傅村镇"},{"id":"370881103","parentId":"370881","areaCode":"370881103","name":"陵城镇"},{"id":"370211007","parentId":"370211","areaCode":"370211007","name":"灵山卫街道"},{"id":"371427104","parentId":"371427","areaCode":"371427104","name":"郑保屯镇"},{"id":"371421105","parentId":"371421","areaCode":"371421105","name":"神头镇"},{"id":"371426105","parentId":"371426","areaCode":"371426105","name":"王杲铺镇"},{"id":"370481011","parentId":"370481","areaCode":"370481011","name":"官桥镇"},{"id":"370306101","parentId":"370306","areaCode":"370306101","name":"南郊镇"},{"id":"370785106","parentId":"370785","areaCode":"370785106","name":"大牟家镇"},{"id":"370282102","parentId":"370282","areaCode":"370282102","name":"温泉街道"},{"id":"371726105","parentId":"371726","areaCode":"371726105","name":"箕山镇"},{"id":"370321107","parentId":"370321","areaCode":"370321107","name":"新城镇"},{"id":"370402101","parentId":"370402","areaCode":"370402101","name":"税郭镇"},{"id":"371325108","parentId":"371325","areaCode":"371325108","name":"新庄镇"},{"id":"371727105","parentId":"371727","areaCode":"371727105","name":"孟海镇"},{"id":"371602009","parentId":"371602","areaCode":"371602009","name":"梁才街道"},{"id":"371721104","parentId":"371721","areaCode":"371721104","name":"桃源集镇"},{"id":"371312108","parentId":"371312","areaCode":"371312108","name":"郑旺镇"},{"id":"371321106","parentId":"371321","areaCode":"371321106","name":"砖埠镇"},{"id":"371329107","parentId":"371329","areaCode":"371329107","name":"白旄镇"},{"id":"370126107","parentId":"370126","areaCode":"370126107","name":"玉皇庙镇"},{"id":"371424104","parentId":"371424","areaCode":"371424104","name":"林子镇"},{"id":"371502008","parentId":"371502","areaCode":"371502008","name":"道口铺街道"},{"id":"370827105","parentId":"370827","areaCode":"370827105","name":"王庙镇"},{"id":"370828107","parentId":"370828","areaCode":"370828107","name":"司马镇"},{"id":"370612101","parentId":"370612","areaCode":"370612101","name":"观水镇"},{"id":"370829106","parentId":"370829","areaCode":"370829106","name":"金屯镇"},{"id":"370830","parentId":"3708","areaCode":"370830","name":"汶上县"},{"id":"370830105","parentId":"370830","areaCode":"370830105","name":"郭楼镇"},{"id":"370831105","parentId":"370831","areaCode":"370831105","name":"苗馆镇"},{"id":"371312109","parentId":"371312","areaCode":"371312109","name":"八湖镇"},{"id":"370306102","parentId":"370306","areaCode":"370306102","name":"王村镇"},{"id":"371624106","parentId":"371624","areaCode":"371624106","name":"黄升镇"},{"id":"371702100","parentId":"371702","areaCode":"371702100","name":"沙土镇"},{"id":"371722105","parentId":"371722","areaCode":"371722105","name":"高韦庄镇"},{"id":"370124107","parentId":"370124","areaCode":"370124107","name":"安城镇"},{"id":"371428201","parentId":"371428","areaCode":"371428201","name":"李家户镇"},{"id":"371482106","parentId":"371482","areaCode":"371482106","name":"梁家镇"},{"id":"371423200","parentId":"371423","areaCode":"371423200","name":"严务乡"},{"id":"370829107","parentId":"370829","areaCode":"370829107","name":"大张楼镇"},{"id":"370831","parentId":"3708","areaCode":"370831","name":"泗水县"},{"id":"371102108","parentId":"371102","areaCode":"371102108","name":"陈疃镇"},{"id":"371103113","parentId":"371103","areaCode":"371103113","name":"碑廓镇"},{"id":"371121108","parentId":"371121","areaCode":"371121108","name":"中至镇"},{"id":"371103402","parentId":"371103","areaCode":"371103402","name":"中楼镇"},{"id":"370202012","parentId":"370202","areaCode":"370202012","name":"八大湖街道"},{"id":"370203008","parentId":"370203","areaCode":"370203008","name":"台东街道"},{"id":"370882107","parentId":"370882","areaCode":"370882107","name":"漕河镇"},{"id":"370883105","parentId":"370883","areaCode":"370883105","name":"中心店镇"},{"id":"371421106","parentId":"371421","areaCode":"371421106","name":"滋镇"},{"id":"371422106","parentId":"371422","areaCode":"371422106","name":"大曹镇"},{"id":"371424105","parentId":"371424","areaCode":"371424105","name":"兴隆镇"},{"id":"371425106","parentId":"371425","areaCode":"371425106","name":"潘店镇"},{"id":"371426106","parentId":"371426","areaCode":"371426106","name":"张华镇"},{"id":"371427","parentId":"3714","areaCode":"371427","name":"夏津县"},{"id":"371481103","parentId":"371481","areaCode":"371481103","name":"丁坞镇"},{"id":"371721105","parentId":"371721","areaCode":"371721105","name":"韩集镇"},{"id":"371723106","parentId":"371723","areaCode":"371723106","name":"苟村集镇"},{"id":"371724106","parentId":"371724","areaCode":"371724106","name":"独山镇"},{"id":"371725106","parentId":"371725","areaCode":"371725106","name":"丁里长镇"},{"id":"371726106","parentId":"371726","areaCode":"371726106","name":"李进士堂镇"},{"id":"371727","parentId":"3717","areaCode":"371727","name":"定陶县"},{"id":"370782","parentId":"3707","areaCode":"370782","name":"诸城市"},{"id":"371202105","parentId":"371202","areaCode":"371202105","name":"苗山镇"},{"id":"370502102","parentId":"370502","areaCode":"370502102","name":"牛庄镇"},{"id":"370521106","parentId":"370521","areaCode":"370521106","name":"董集镇"},{"id":"370522206","parentId":"370522","areaCode":"370522206","name":"刁口乡"},{"id":"370784118","parentId":"370784","areaCode":"370784118","name":"柘山镇"},{"id":"370681104","parentId":"370681","areaCode":"370681104","name":"芦头镇"},{"id":"370682103","parentId":"370682","areaCode":"370682103","name":"穴坊镇"},{"id":"370683","parentId":"3706","areaCode":"370683","name":"莱州市"},{"id":"370683102","parentId":"370683","areaCode":"370683102","name":"朱桥镇"},{"id":"370686105","parentId":"370686","areaCode":"370686105","name":"亭口镇"},{"id":"370802010","parentId":"370802","areaCode":"370802010","name":"唐口街道"},{"id":"370811109","parentId":"370811","areaCode":"370811109","name":"石桥镇"},{"id":"370826106","parentId":"370826","areaCode":"370826106","name":"留庄镇"},{"id":"371625106","parentId":"371625","areaCode":"371625106","name":"店子镇"},{"id":"370602008","parentId":"370602","areaCode":"370602008","name":"芝罘岛街道"},{"id":"371081104","parentId":"371081","areaCode":"371081104","name":"泽库镇"},{"id":"371621107","parentId":"371621","areaCode":"371621107","name":"麻店镇"},{"id":"371323108","parentId":"371323","areaCode":"371323108","name":"四十里堡镇"},{"id":"370211008","parentId":"370211","areaCode":"370211008","name":"积米崖港区"},{"id":"371302103","parentId":"371302","areaCode":"371302103","name":"半程镇"},{"id":"370782110","parentId":"370782","areaCode":"370782110","name":"昌城镇"},{"id":"371326107","parentId":"371326","areaCode":"371326107","name":"铜石镇"},{"id":"371599100","parentId":"371599","areaCode":"371599100","name":"许营镇"},{"id":"370634206","parentId":"370634","areaCode":"370634206","name":"北隍城乡"},{"id":"371622106","parentId":"371622","areaCode":"371622106","name":"水落坡镇"},{"id":"370112008","parentId":"370112","areaCode":"370112008","name":"临港街道"},{"id":"370687105","parentId":"370687","areaCode":"370687105","name":"徐家店镇"},{"id":"371698","parentId":"3716","areaCode":"371698","name":"高新技术产业开发区"},{"id":"370724109","parentId":"370724","areaCode":"370724109","name":"沂山镇"},{"id":"370684105","parentId":"370684","areaCode":"370684105","name":"大柳行镇"},{"id":"371623106","parentId":"371623","areaCode":"371623106","name":"车王镇"},{"id":"370104008","parentId":"370104","areaCode":"370104008","name":"南辛庄街道 "},{"id":"370828108","parentId":"370828","areaCode":"370828108","name":"鱼山镇"},{"id":"370881105","parentId":"370881","areaCode":"370881105","name":"尼山镇"},{"id":"370523109","parentId":"370523","areaCode":"370523109","name":"花官镇"},{"id":"371626105","parentId":"371626","areaCode":"371626105","name":"临池镇"},{"id":"371083106","parentId":"371083","areaCode":"371083106","name":"冯家镇"},{"id":"370612105","parentId":"370612","areaCode":"370612105","name":"龙泉镇"},{"id":"370832106","parentId":"370832","areaCode":"370832106","name":"韩垓镇"},{"id":"370786109","parentId":"370786","areaCode":"370786109","name":"北孟镇"},{"id":"370785109","parentId":"370785","areaCode":"370785109","name":"阚家镇"},{"id":"370991","parentId":"3709","areaCode":"370991","name":"泰山景区"},{"id":"371311103","parentId":"371311","areaCode":"371311103","name":"黄山镇"},{"id":"371321109","parentId":"371321","areaCode":"371321109","name":"大庄镇"},{"id":"371322109","parentId":"371322","areaCode":"371322109","name":"庙山镇"},{"id":"371326","parentId":"3713","areaCode":"371326","name":"平邑县"},{"id":"371328107","parentId":"371328","areaCode":"371328107","name":"桃墟镇"},{"id":"371329108","parentId":"371329","areaCode":"371329108","name":"青云镇"},{"id":"371727106","parentId":"371727","areaCode":"371727106","name":"马集镇"},{"id":"371728106","parentId":"371728","areaCode":"371728106","name":"大屯镇"},{"id":"370113106","parentId":"370113","areaCode":"370113106","name":"张夏镇"},{"id":"370125","parentId":"3701","areaCode":"370125","name":"济阳县"},{"id":"370126108","parentId":"370126","areaCode":"370126108","name":"白桥镇 "},{"id":"370481022","parentId":"370481","areaCode":"370481022","name":"洪绪镇"},{"id":"370403105","parentId":"370403","areaCode":"370403105","name":"巨山街道办事处"},{"id":"370705008","parentId":"370705","areaCode":"370705008","name":"北海路街道"},{"id":"370213008","parentId":"370213","areaCode":"370213008","name":"浮山路街道"},{"id":"370214008","parentId":"370214","areaCode":"370214008","name":"惜福镇街道"},{"id":"370281","parentId":"3702","areaCode":"370281","name":"胶州市"},{"id":"370281100","parentId":"370281","areaCode":"370281100","name":"胶莱镇"},{"id":"370282103","parentId":"370282","areaCode":"370282103","name":"龙泉街道"},{"id":"370285102","parentId":"370285","areaCode":"370285102","name":"夏格庄镇"},{"id":"3709","parentId":"37","areaCode":"3709","name":"泰安市"},{"id":"370923109","parentId":"370923","areaCode":"370923109","name":"接山镇"},{"id":"370982106","parentId":"370982","areaCode":"370982106","name":"果都镇"},{"id":"370983106","parentId":"370983","areaCode":"370983106","name":"石横镇"},{"id":"370725110","parentId":"370725","areaCode":"370725110","name":"红河镇"},{"id":"370781105","parentId":"370781","areaCode":"370781105","name":"邵庄镇"},{"id":"370783104","parentId":"370783","areaCode":"370783104","name":"台头镇"},{"id":"371602101","parentId":"371602","areaCode":"371602101","name":"杨柳雪镇"},{"id":"370685103","parentId":"370685","areaCode":"370685103","name":"金岭镇"},{"id":"370827106","parentId":"370827","areaCode":"370827106","name":"李阁镇"},{"id":"370830106","parentId":"370830","areaCode":"370830106","name":"康驿镇"},{"id":"370831106","parentId":"370831","areaCode":"370831106","name":"中册镇"},{"id":"371427105","parentId":"371427","areaCode":"371427105","name":"白马湖镇"},{"id":"370102008","parentId":"370102","areaCode":"370102008","name":"建筑新村街道"},{"id":"370103012","parentId":"370103","areaCode":"370103012","name":"舜玉路街道 "},{"id":"370105010","parentId":"370105","areaCode":"370105010","name":"宝华街道"},{"id":"370125107","parentId":"370125","areaCode":"370125107","name":"崔寨镇"},{"id":"370181103","parentId":"370181","areaCode":"370181103","name":"绣惠镇 "},{"id":"370284103","parentId":"370284","areaCode":"370284103","name":"泊里镇"},{"id":"370911105","parentId":"370911","areaCode":"370911105","name":"满庄镇"},{"id":"370921109","parentId":"370921","areaCode":"370921109","name":"磁窑镇"},{"id":"371324107","parentId":"371324","areaCode":"371324107","name":"尚岩镇"},{"id":"371325109","parentId":"371325","areaCode":"371325109","name":"马庄镇"},{"id":"371327112","parentId":"371327","areaCode":"371327112","name":"岭泉镇"},{"id":"370402102","parentId":"370402","areaCode":"370402102","name":"孟庄镇"},{"id":"371522104","parentId":"371522","areaCode":"371522104","name":"古城镇"},{"id":"371523105","parentId":"371523","areaCode":"371523105","name":"杜郎口镇"},{"id":"371524107","parentId":"371524","areaCode":"371524107","name":"姚寨镇"},{"id":"370302112","parentId":"370302","areaCode":"370302112","name":"龙泉镇"},{"id":"371082007","parentId":"371082","areaCode":"371082007","name":"崖头街道"},{"id":"370406107","parentId":"370406","areaCode":"370406107","name":"水泉镇"},{"id":"371502102","parentId":"371502","areaCode":"371502102","name":"沙镇镇"},{"id":"371521105","parentId":"371521","areaCode":"371521105","name":"张秋镇"},{"id":"371525105","parentId":"371525","areaCode":"371525105","name":"东古城镇"},{"id":"371526105","parentId":"371526","areaCode":"371526105","name":"三十里铺镇"},{"id":"371581","parentId":"3715","areaCode":"371581","name":"临清市"},{"id":"371581104","parentId":"371581","areaCode":"371581104","name":"魏湾镇"},{"id":"370303101","parentId":"370303","areaCode":"370303101","name":"南定镇"},{"id":"370304112","parentId":"370304","areaCode":"370304112","name":"池上镇"},{"id":"370305103","parentId":"370305","areaCode":"370305103","name":"敬仲镇"},{"id":"370321109","parentId":"370321","areaCode":"370321109","name":"唐山镇"},{"id":"370322106","parentId":"370322","areaCode":"370322106","name":"花沟镇"},{"id":"370323108","parentId":"370323","areaCode":"370323108","name":"张家坡镇"},{"id":"370390","parentId":"3703","areaCode":"370390","name":"高新区"},{"id":"371421107","parentId":"371421","areaCode":"371421107","name":"前孙镇"},{"id":"371422107","parentId":"371422","areaCode":"371422107","name":"相衙镇"},{"id":"371423202","parentId":"371423","areaCode":"371423202","name":"中丁乡"},{"id":"371425107","parentId":"371425","areaCode":"371425107","name":"胡官屯镇"},{"id":"371426107","parentId":"371426","areaCode":"371426107","name":"腰站镇"},{"id":"371427106","parentId":"371427","areaCode":"371427106","name":"东李官屯镇"},{"id":"371482107","parentId":"371482","areaCode":"371482107","name":"十里望回族镇"},{"id":"371702101","parentId":"371702","areaCode":"371702101","name":"吴店镇"},{"id":"371721106","parentId":"371721","areaCode":"371721106","name":"砖庙镇"},{"id":"371723107","parentId":"371723","areaCode":"371723107","name":"白浮图镇"},{"id":"371726107","parentId":"371726","areaCode":"371726107","name":"董口镇"},{"id":"371728","parentId":"3717","areaCode":"371728","name":"东明县"},{"id":"371728107","parentId":"371728","areaCode":"371728107","name":"武胜桥镇"},{"id":"370725112","parentId":"370725","areaCode":"370725112","name":"营丘镇"},{"id":"370781109","parentId":"370781","areaCode":"370781109","name":"高柳镇"},{"id":"370783","parentId":"3707","areaCode":"370783","name":"寿光市"},{"id":"370783106","parentId":"370783","areaCode":"370783106","name":"田柳镇"},{"id":"371202106","parentId":"371202","areaCode":"371202106","name":"雪野镇"},{"id":"370502103","parentId":"370502","areaCode":"370502103","name":"六户镇"},{"id":"370785111","parentId":"370785","areaCode":"370785111","name":"井沟镇"},{"id":"371622200","parentId":"371622","areaCode":"371622200","name":"劳店乡"},{"id":"370682104","parentId":"370682","areaCode":"370682104","name":"羊郡镇"},{"id":"370683103","parentId":"370683","areaCode":"370683103","name":"郭家店镇"},{"id":"370684","parentId":"3706","areaCode":"370684","name":"蓬莱市"},{"id":"370686106","parentId":"370686","areaCode":"370686106","name":"臧家庄镇"},{"id":"370802102","parentId":"370802","areaCode":"370802102","name":"喻屯镇"},{"id":"370826107","parentId":"370826","areaCode":"370826107","name":"两城镇"},{"id":"371624107","parentId":"371624","areaCode":"371624107","name":"滨海镇"},{"id":"371626108","parentId":"371626","areaCode":"371626108","name":"焦桥镇"},{"id":"371699","parentId":"3716","areaCode":"371699","name":"滨州市经济开发区"},{"id":"370786110","parentId":"370786","areaCode":"370786110","name":"下营镇"},{"id":"3710","parentId":"37","areaCode":"3710","name":"威海市"},{"id":"370523208","parentId":"370523","areaCode":"370523208","name":"陈官乡"},{"id":"371602105","parentId":"371602","areaCode":"371602105","name":"三河湖镇"},{"id":"371725107","parentId":"371725","areaCode":"371725107","name":"玉皇庙镇"},{"id":"371724107","parentId":"371724","areaCode":"371724107","name":"麟麟镇"},{"id":"370113107","parentId":"370113","areaCode":"370113107","name":"马山镇"},{"id":"370322108","parentId":"370322","areaCode":"370322108","name":"木李镇"},{"id":"371312400","parentId":"371312","areaCode":"371312400","name":"工业园区"},{"id":"370684106","parentId":"370684","areaCode":"370684106","name":"小门家镇"},{"id":"370211009","parentId":"370211","areaCode":"370211009","name":"王台镇"},{"id":"370305104","parentId":"370305","areaCode":"370305104","name":"朱台镇"},{"id":"370782111","parentId":"370782","areaCode":"370782111","name":"百尺河镇"},{"id":"370282104","parentId":"370282","areaCode":"370282104","name":"刘家庄中心社区"},{"id":"371623107","parentId":"371623","areaCode":"371623107","name":"柳堡镇"},{"id":"371621108","parentId":"371621","areaCode":"371621108","name":"魏集镇"},{"id":"370685104","parentId":"370685","areaCode":"370685104","name":"毕郭镇"},{"id":"370687106","parentId":"370687","areaCode":"370687106","name":"发城镇"},{"id":"370406108","parentId":"370406","areaCode":"370406108","name":"冯卯镇"},{"id":"371481104","parentId":"371481","areaCode":"371481104","name":"花园镇"},{"id":"371424106","parentId":"371424","areaCode":"371424106","name":"孟寺镇"},{"id":"371625107","parentId":"371625","areaCode":"371625107","name":"吕艺镇"},{"id":"370522003","parentId":"370522","areaCode":"370522003","name":"利津县城区管委会"},{"id":"370724112","parentId":"370724","areaCode":"370724112","name":"龙岗镇"},{"id":"371727107","parentId":"371727","areaCode":"371727107","name":"仿山镇"},{"id":"371722106","parentId":"371722","areaCode":"371722106","name":"徐寨镇"},{"id":"371302105","parentId":"371302","areaCode":"371302105","name":"义堂镇"},{"id":"370181104","parentId":"370181","areaCode":"370181104","name":"相公庄镇 "},{"id":"371521106","parentId":"371521","areaCode":"371521106","name":"闫楼镇"},{"id":"370827107","parentId":"370827","areaCode":"370827107","name":"唐马镇"},{"id":"370828109","parentId":"370828","areaCode":"370828109","name":"马庙镇"},{"id":"370830107","parentId":"370830","areaCode":"370830107","name":"苑庄镇"},{"id":"370831107","parentId":"370831","areaCode":"370831107","name":"杨柳镇"},{"id":"370983107","parentId":"370983","areaCode":"370983107","name":"安临站镇"},{"id":"371321110","parentId":"371321","areaCode":"371321110","name":"辛集镇"},{"id":"371322111","parentId":"371322","areaCode":"371322111","name":"胜利镇"},{"id":"371323109","parentId":"371323","areaCode":"371323109","name":"杨庄镇"},{"id":"371324108","parentId":"371324","areaCode":"371324108","name":"向城镇"},{"id":"371325112","parentId":"371325","areaCode":"371325112","name":"胡阳镇"},{"id":"371326108","parentId":"371326","areaCode":"371326108","name":"温水镇"},{"id":"371327","parentId":"3713","areaCode":"371327","name":"莒南县"},{"id":"371327113","parentId":"371327","areaCode":"371327113","name":"筵宾镇"},{"id":"371328109","parentId":"371328","areaCode":"371328109","name":"联城镇"},{"id":"370125108","parentId":"370125","areaCode":"370125108","name":"太平镇"},{"id":"370202013","parentId":"370202","areaCode":"370202013","name":"金门路街道"},{"id":"370203009","parentId":"370203","areaCode":"370203009","name":"镇江路街道"},{"id":"370481023","parentId":"370481","areaCode":"370481023","name":"界河镇"},{"id":"370214009","parentId":"370214","areaCode":"370214009","name":"城阳区老年体协"},{"id":"370213009","parentId":"370213","areaCode":"370213009","name":"九水路街道"},{"id":"370282","parentId":"3702","areaCode":"370282","name":"即墨市"},{"id":"370284104","parentId":"370284","areaCode":"370284104","name":"大场镇"},{"id":"370911106","parentId":"370911","areaCode":"370911106","name":"夏张镇"},{"id":"370921110","parentId":"370921","areaCode":"370921110","name":"华丰镇"},{"id":"370923110","parentId":"370923","areaCode":"370923110","name":"大羊镇"},{"id":"370982107","parentId":"370982","areaCode":"370982107","name":"西张庄镇"},{"id":"370784119","parentId":"370784","areaCode":"370784119","name":"辉渠镇"},{"id":"371081105","parentId":"371081","areaCode":"371081105","name":"侯家镇"},{"id":"371083107","parentId":"371083","areaCode":"371083107","name":"下初镇"},{"id":"370602009","parentId":"370602","areaCode":"370602009","name":"黄务街道"},{"id":"370612106","parentId":"370612","areaCode":"370612106","name":"玉林店镇"},{"id":"370681402","parentId":"370681","areaCode":"370681402","name":"下丁家镇"},{"id":"370829200","parentId":"370829","areaCode":"370829200","name":"老僧堂镇"},{"id":"370832","parentId":"3708","areaCode":"370832","name":"梁山县"},{"id":"370832107","parentId":"370832","areaCode":"370832107","name":"馆驿镇"},{"id":"370881106","parentId":"370881","areaCode":"370881106","name":"息陬镇"},{"id":"370882110","parentId":"370882","areaCode":"370882110","name":"兴隆庄镇"},{"id":"371428","parentId":"3714","areaCode":"371428","name":"武城县"},{"id":"370402103","parentId":"370402","areaCode":"370402103","name":"齐村镇"},{"id":"371122109","parentId":"371122","areaCode":"371122109","name":"龙山镇"},{"id":"370102009","parentId":"370102","areaCode":"370102009","name":"甸柳街道"},{"id":"370103014","parentId":"370103","areaCode":"370103014","name":"泺源街道 "},{"id":"370104009","parentId":"370104","areaCode":"370104009","name":"段店北路街道 "},{"id":"370105011","parentId":"370105","areaCode":"370105011","name":"官扎营街道 "},{"id":"370112009","parentId":"370112","areaCode":"370112009","name":"华山街道"},{"id":"370126","parentId":"3701","areaCode":"370126","name":"商河县"},{"id":"370126201","parentId":"370126","areaCode":"370126201","name":"孙集乡"},{"id":"370285104","parentId":"370285","areaCode":"370285104","name":"院上镇"},{"id":"371329109","parentId":"371329","areaCode":"371329109","name":"玉山镇"},{"id":"371526106","parentId":"371526","areaCode":"371526106","name":"琉璃寺镇"},{"id":"371581105","parentId":"371581","areaCode":"371581105","name":"刘垓子镇"},{"id":"370303102","parentId":"370303","areaCode":"370303102","name":"沣水镇"},{"id":"370307","parentId":"3703","areaCode":"370307","name":"文昌湖区"},{"id":"371082008","parentId":"371082","areaCode":"371082008","name":"寻山街道"},{"id":"371002501","parentId":"371002","areaCode":"371002501","name":"嵩山街道办事处"},{"id":"371502103","parentId":"371502","areaCode":"371502103","name":"侯营镇"},{"id":"371522105","parentId":"371522","areaCode":"371522105","name":"大张家镇"},{"id":"371523106","parentId":"371523","areaCode":"371523106","name":"韩屯镇"},{"id":"371524108","parentId":"371524","areaCode":"371524108","name":"鱼山镇"},{"id":"371525106","parentId":"371525","areaCode":"371525106","name":"北馆陶镇"},{"id":"370302114","parentId":"370302","areaCode":"370302114","name":"罗村镇"},{"id":"370304113","parentId":"370304","areaCode":"370304113","name":"博山镇"},{"id":"370321110","parentId":"370321","areaCode":"370321110","name":"果里镇"},{"id":"370323109","parentId":"370323","areaCode":"370323109","name":"鲁村镇"},{"id":"371102109","parentId":"371102","areaCode":"371102109","name":"南湖镇"},{"id":"371103201","parentId":"371103","areaCode":"371103201","name":"前三岛乡"},{"id":"371121109","parentId":"371121","areaCode":"371121109","name":"高泽镇"},{"id":"370883106","parentId":"370883","areaCode":"370883106","name":"唐村镇"},{"id":"371722107","parentId":"371722","areaCode":"371722107","name":"蔡堂镇"},{"id":"371724108","parentId":"371724","areaCode":"371724108","name":"核桃园镇"},{"id":"371727108","parentId":"371727","areaCode":"371727108","name":"半堤镇"},{"id":"371728201","parentId":"371728","areaCode":"371728201","name":"菜园集镇"},{"id":"371790","parentId":"3717","areaCode":"371790","name":"开发区"},{"id":"370781111","parentId":"370781","areaCode":"370781111","name":"何官镇"},{"id":"370783108","parentId":"370783","areaCode":"370783108","name":"上口镇"},{"id":"371202107","parentId":"371202","areaCode":"371202107","name":"大王庄镇"},{"id":"370502104","parentId":"370502","areaCode":"370502104","name":"史口镇"},{"id":"370784120","parentId":"370784","areaCode":"370784120","name":"郚山镇"},{"id":"370785114","parentId":"370785","areaCode":"370785114","name":"柴沟镇"},{"id":"371622204","parentId":"371622","areaCode":"371622204","name":"洋湖乡"},{"id":"370612107","parentId":"370612","areaCode":"370612107","name":"水道镇"},{"id":"370681107","parentId":"370681","areaCode":"370681107","name":"七甲镇"},{"id":"370684107","parentId":"370684","areaCode":"370684107","name":"大辛店镇"},{"id":"370685","parentId":"3706","areaCode":"370685","name":"招远市"},{"id":"370685105","parentId":"370685","areaCode":"370685105","name":"玲珑镇"},{"id":"370686107","parentId":"370686","areaCode":"370686107","name":"寺口镇"},{"id":"370687107","parentId":"370687","areaCode":"370687107","name":"小纪镇"},{"id":"370826108","parentId":"370826","areaCode":"370826108","name":"马坡镇"},{"id":"371623200","parentId":"371623","areaCode":"371623200","name":"信阳乡"},{"id":"371624203","parentId":"371624","areaCode":"371624203","name":"下河乡"},{"id":"371625108","parentId":"371625","areaCode":"371625108","name":"纯化镇"},{"id":"371626109","parentId":"371626","areaCode":"371626109","name":"韩店镇"},{"id":"370602010","parentId":"370602","areaCode":"370602010","name":"只楚街道"},{"id":"371081106","parentId":"371081","areaCode":"371081106","name":"宋村镇"},{"id":"370481024","parentId":"370481","areaCode":"370481024","name":"级索镇"},{"id":"371327114","parentId":"371327","areaCode":"371327114","name":"涝坡镇"},{"id":"371721107","parentId":"371721","areaCode":"371721107","name":"古营集镇"},{"id":"370102010","parentId":"370102","areaCode":"370102010","name":"燕山街道"},{"id":"371426108","parentId":"371426","areaCode":"371426108","name":"王打卦镇"},{"id":"371329110","parentId":"371329","areaCode":"371329110","name":"店头镇"},{"id":"371083108","parentId":"371083","areaCode":"371083108","name":"午极镇"},{"id":"371602203","parentId":"371602","areaCode":"371602203","name":"秦皇台乡"},{"id":"370683104","parentId":"370683","areaCode":"370683104","name":"金城镇"},{"id":"370832108","parentId":"370832","areaCode":"370832108","name":"小安山镇"},{"id":"370881107","parentId":"370881","areaCode":"370881107","name":"王庄镇"},{"id":"370831108","parentId":"370831","areaCode":"370831108","name":"泗张镇"},{"id":"370305105","parentId":"370305","areaCode":"370305105","name":"凤凰镇"},{"id":"371326109","parentId":"371326","areaCode":"371326109","name":"流峪镇"},{"id":"370724113","parentId":"370724","areaCode":"370724113","name":"柳山镇"},{"id":"370782112","parentId":"370782","areaCode":"370782112","name":"辛兴镇"},{"id":"370304114","parentId":"370304","areaCode":"370304114","name":"源泉镇"},{"id":"371725108","parentId":"371725","areaCode":"371725108","name":"程屯镇"},{"id":"370211010","parentId":"370211","areaCode":"370211010","name":"黄山经济区"},{"id":"371322112","parentId":"371322","areaCode":"371322112","name":"红花镇"},{"id":"370113108","parentId":"370113","areaCode":"370113108","name":"双泉镇"},{"id":"371422108","parentId":"371422","areaCode":"371422108","name":"时集镇"},{"id":"371481105","parentId":"371481","areaCode":"371481105","name":"郑店镇"},{"id":"371723108","parentId":"371723","areaCode":"371723108","name":"孙寺镇"},{"id":"371726108","parentId":"371726","areaCode":"371726108","name":"临濮镇"},{"id":"370827108","parentId":"370827","areaCode":"370827108","name":"老砦镇"},{"id":"370828110","parentId":"370828","areaCode":"370828110","name":"化雨镇"},{"id":"370829201","parentId":"370829","areaCode":"370829201","name":"黄垓乡"},{"id":"370830108","parentId":"370830","areaCode":"370830108","name":"义桥镇"},{"id":"370983108","parentId":"370983","areaCode":"370983108","name":"孙伯镇"},{"id":"371302107","parentId":"371302","areaCode":"371302107","name":"李官镇"},{"id":"371321111","parentId":"371321","areaCode":"371321111","name":"蒲汪镇"},{"id":"371323110","parentId":"371323","areaCode":"371323110","name":"夏蔚镇"},{"id":"371324109","parentId":"371324","areaCode":"371324109","name":"新兴镇"},{"id":"371325113","parentId":"371325","areaCode":"371325113","name":"石井镇"},{"id":"371328","parentId":"3713","areaCode":"371328","name":"蒙阴县"},{"id":"371610","parentId":"3716","areaCode":"371610","name":"滨州市北海经济开发区"},{"id":"370725111","parentId":"370725","areaCode":"370725111","name":"经济开发区"},{"id":"370213010","parentId":"370213","areaCode":"370213010","name":"湘潭路街道"},{"id":"370281102","parentId":"370281","areaCode":"370281102","name":"李哥庄镇"},{"id":"370282105","parentId":"370282","areaCode":"370282105","name":"蓝村镇"},{"id":"370283","parentId":"3702","areaCode":"370283","name":"平度市"},{"id":"370283105","parentId":"370283","areaCode":"370283105","name":"南村镇"},{"id":"370284105","parentId":"370284","areaCode":"370284105","name":"大村镇"},{"id":"370285105","parentId":"370285","areaCode":"370285105","name":"日庄镇"},{"id":"370911107","parentId":"370911","areaCode":"370911107","name":"道朗镇"},{"id":"370921111","parentId":"370921","areaCode":"370921111","name":"葛石镇"},{"id":"370784","parentId":"3707","areaCode":"370784","name":"安丘市"},{"id":"371082102","parentId":"371082","areaCode":"371082102","name":"成山镇"},{"id":"371621109","parentId":"371621","areaCode":"371621109","name":"清河镇"},{"id":"370682105","parentId":"370682","areaCode":"370682105","name":"姜疃镇"},{"id":"370881","parentId":"3708","areaCode":"370881","name":"曲阜市"},{"id":"370883107","parentId":"370883","areaCode":"370883107","name":"太平镇"},{"id":"370402201","parentId":"370402","areaCode":"370402201","name":"永安乡"},{"id":"370103015","parentId":"370103","areaCode":"370103015","name":"王官庄街道"},{"id":"370104010","parentId":"370104","areaCode":"370104010","name":"张庄路街道 "},{"id":"370105012","parentId":"370105","areaCode":"370105012","name":"纬北路街道 "},{"id":"370112010","parentId":"370112","areaCode":"370112010","name":"王舍人街道 "},{"id":"370125109","parentId":"370125","areaCode":"370125109","name":"新市镇"},{"id":"370126204","parentId":"370126","areaCode":"370126204","name":"沙河乡"},{"id":"370181","parentId":"3701","areaCode":"370181","name":"章丘市"},{"id":"370181105","parentId":"370181","areaCode":"370181105","name":"垛庄镇"},{"id":"370923111","parentId":"370923","areaCode":"370923111","name":"梯门镇"},{"id":"370982108","parentId":"370982","areaCode":"370982108","name":"天宝镇"},{"id":"371328201","parentId":"371328","areaCode":"371328201","name":"旧寨乡"},{"id":"371525107","parentId":"371525","areaCode":"371525107","name":"店子镇"},{"id":"371121110","parentId":"371121","areaCode":"371121110","name":"松柏镇"},{"id":"370406201","parentId":"370406","areaCode":"370406201","name":"凫城乡"},{"id":"371502104","parentId":"371502","areaCode":"371502104","name":"堂邑镇"},{"id":"371521108","parentId":"371521","areaCode":"371521108","name":"石佛镇"},{"id":"371522106","parentId":"371522","areaCode":"371522106","name":"古云镇"},{"id":"371523107","parentId":"371523","areaCode":"371523107","name":"胡屯镇"},{"id":"371524205","parentId":"371524","areaCode":"371524205","name":"陈集乡"},{"id":"371526107","parentId":"371526","areaCode":"371526107","name":"赵寨子镇"},{"id":"371581107","parentId":"371581","areaCode":"371581107","name":"八岔路镇"},{"id":"371599","parentId":"3715","areaCode":"371599","name":"经济开发区"},{"id":"370302115","parentId":"370302","areaCode":"370302115","name":"洪山镇"},{"id":"370303104","parentId":"370303","areaCode":"370303104","name":"傅家镇"},{"id":"370323110","parentId":"370323","areaCode":"370323110","name":"南鲁山镇"},{"id":"3711","parentId":"37","areaCode":"3711","name":"日照市"},{"id":"371102110","parentId":"371102","areaCode":"371102110","name":"三庄镇"},{"id":"371122110","parentId":"371122","areaCode":"371122110","name":"东莞镇"},{"id":"370202014","parentId":"370202","areaCode":"370202014","name":"珠海路街道"},{"id":"370203010","parentId":"370203","areaCode":"370203010","name":"宁夏路街道"},{"id":"370882111","parentId":"370882","areaCode":"370882111","name":"小孟镇"},{"id":"371421108","parentId":"371421","areaCode":"371421108","name":"边临镇"},{"id":"371423203","parentId":"371423","areaCode":"371423203","name":"徐园子乡"},{"id":"371424107","parentId":"371424","areaCode":"371424107","name":"翟家镇"},{"id":"371425108","parentId":"371425","areaCode":"371425108","name":"宣章屯镇"},{"id":"371427107","parentId":"371427","areaCode":"371427107","name":"宋楼镇"},{"id":"371481","parentId":"3714","areaCode":"371481","name":"乐陵市"},{"id":"371482200","parentId":"371482","areaCode":"371482200","name":"李屯乡"},{"id":"371702102","parentId":"371702","areaCode":"371702102","name":"王浩屯镇"},{"id":"370686108","parentId":"370686","areaCode":"370686108","name":"苏家店镇"},{"id":"370687108","parentId":"370687","areaCode":"370687108","name":"行村镇"},{"id":"370826200","parentId":"370826","areaCode":"370826200","name":"微山岛乡"},{"id":"371624204","parentId":"371624","areaCode":"371624204","name":"利国乡"},{"id":"371625109","parentId":"371625","areaCode":"371625109","name":"庞家镇"},{"id":"371626110","parentId":"371626","areaCode":"371626110","name":"孙镇镇"},{"id":"370602011","parentId":"370602","areaCode":"370602011","name":"世回尧街道"},{"id":"371081107","parentId":"371081","areaCode":"371081107","name":"泽头镇"},{"id":"371082103","parentId":"371082","areaCode":"371082103","name":"埠柳镇"},{"id":"371083109","parentId":"371083","areaCode":"371083109","name":"育黎镇"},{"id":"371621111","parentId":"371621","areaCode":"371621111","name":"姜楼镇"},{"id":"370682106","parentId":"370682","areaCode":"370682106","name":"万第镇"},{"id":"370102011","parentId":"370102","areaCode":"370102011","name":"姚家街道"},{"id":"371321112","parentId":"371321","areaCode":"371321112","name":"湖头镇"},{"id":"370692001","parentId":"370692","areaCode":"370692001","name":"昆嵛镇"},{"id":"371722108","parentId":"371722","areaCode":"371722108","name":"朱集镇"},{"id":"370103016","parentId":"370103","areaCode":"370103016","name":"舜耕街道"},{"id":"371102133","parentId":"371102","areaCode":"371102133","name":"香河街道"},{"id":"370832109","parentId":"370832","areaCode":"370832109","name":"寿张集镇"},{"id":"370882","parentId":"3708","areaCode":"370882","name":"兖州市"},{"id":"371526108","parentId":"371526","areaCode":"371526108","name":"姜店镇"},{"id":"371481106","parentId":"371481","areaCode":"371481106","name":"化楼镇"},{"id":"371323111","parentId":"371323","areaCode":"371323111","name":"沙沟镇"},{"id":"371530","parentId":"3715","areaCode":"371530","name":"高新技术产业开发区"},{"id":"371427108","parentId":"371427","areaCode":"371427108","name":"香赵庄镇"},{"id":"370725122","parentId":"370725","areaCode":"370725122","name":"高崖库区管委会"},{"id":"370782114","parentId":"370782","areaCode":"370782114","name":"林家村镇"},{"id":"371325200","parentId":"371325","areaCode":"371325200","name":"大田庄乡"},{"id":"371121201","parentId":"371121","areaCode":"371121201","name":"石场乡"},{"id":"370683105","parentId":"370683","areaCode":"370683105","name":"平里店镇"},{"id":"371724109","parentId":"371724","areaCode":"371724109","name":"田庄镇"},{"id":"370724114","parentId":"370724","areaCode":"370724114","name":"龙山产业园"},{"id":"371329111","parentId":"371329","areaCode":"371329111","name":"苍马山风景旅游区"},{"id":"371426200","parentId":"371426","areaCode":"371426200","name":"坊子乡"},{"id":"370881201","parentId":"370881","areaCode":"370881201","name":"石门山镇"},{"id":"370105013","parentId":"370105","areaCode":"370105013","name":"药山街道"},{"id":"370284106","parentId":"370284","areaCode":"370284106","name":"六汪镇"},{"id":"370829204","parentId":"370829","areaCode":"370829204","name":"万张镇"},{"id":"371702103","parentId":"371702","areaCode":"371702103","name":"黄堽镇"},{"id":"370983109","parentId":"370983","areaCode":"370983109","name":"安驾庄镇"},{"id":"371302109","parentId":"371302","areaCode":"371302109","name":"汪沟镇"},{"id":"371322202","parentId":"371322","areaCode":"371322202","name":"花园乡"},{"id":"371329","parentId":"3713","areaCode":"371329","name":"临沭县"},{"id":"371721108","parentId":"371721","areaCode":"371721108","name":"魏湾镇"},{"id":"371727202","parentId":"371727","areaCode":"371727202","name":"南王店乡"},{"id":"371728202","parentId":"371728","areaCode":"371728202","name":"小井乡"},{"id":"370112011","parentId":"370112","areaCode":"370112011","name":"郭店街道"},{"id":"370126205","parentId":"370126","areaCode":"370126205","name":"韩庙乡"},{"id":"370181106","parentId":"370181","areaCode":"370181106","name":"水寨镇"},{"id":"370481025","parentId":"370481","areaCode":"370481025","name":"姜屯镇"},{"id":"371328202","parentId":"371328","areaCode":"371328202","name":"云蒙湖管区"},{"id":"370213011","parentId":"370213","areaCode":"370213011","name":"楼山街道"},{"id":"370281105","parentId":"370281","areaCode":"370281105","name":"铺集镇"},{"id":"370284","parentId":"3702","areaCode":"370284","name":"黄岛区"},{"id":"370285106","parentId":"370285","areaCode":"370285106","name":"南墅镇"},{"id":"370923204","parentId":"370923","areaCode":"370923204","name":"新湖镇"},{"id":"370982110","parentId":"370982","areaCode":"370982110","name":"楼德镇"},{"id":"370781113","parentId":"370781","areaCode":"370781113","name":"东夏镇"},{"id":"370783109","parentId":"370783","areaCode":"370783109","name":"侯镇"},{"id":"370684108","parentId":"370684","areaCode":"370684108","name":"村里集镇"},{"id":"370685106","parentId":"370685","areaCode":"370685106","name":"张星镇"},{"id":"370827204","parentId":"370827","areaCode":"370827204","name":"罗屯镇"},{"id":"370828111","parentId":"370828","areaCode":"370828111","name":"高河镇"},{"id":"370830109","parentId":"370830","areaCode":"370830109","name":"白石镇"},{"id":"370831109","parentId":"370831","areaCode":"370831109","name":"圣水峪镇"},{"id":"371482202","parentId":"371482","areaCode":"371482202","name":"莒镇乡"},{"id":"370104011","parentId":"370104","areaCode":"370104011","name":"匡山街道 "},{"id":"370911108","parentId":"370911","areaCode":"370911108","name":"黄前镇"},{"id":"370921112","parentId":"370921","areaCode":"370921112","name":"东庄镇"},{"id":"371324110","parentId":"371324","areaCode":"371324110","name":"南桥镇"},{"id":"371326110","parentId":"371326","areaCode":"371326110","name":"郑城镇"},{"id":"371327200","parentId":"371327","areaCode":"371327200","name":"道口镇"},{"id":"370402202","parentId":"370402","areaCode":"370402202","name":"西王庄乡"},{"id":"371522107","parentId":"371522","areaCode":"371522107","name":"十八里铺镇"},{"id":"370302116","parentId":"370302","areaCode":"370302116","name":"西河镇"},{"id":"371502105","parentId":"371502","areaCode":"371502105","name":"梁水镇"},{"id":"371521109","parentId":"371521","areaCode":"371521109","name":"李台镇"},{"id":"371523108","parentId":"371523","areaCode":"371523108","name":"肖庄镇"},{"id":"371525200","parentId":"371525","areaCode":"371525200","name":"斜店乡"},{"id":"371581108","parentId":"371581","areaCode":"371581108","name":"潘庄镇"},{"id":"370303105","parentId":"370303","areaCode":"370303105","name":"中埠镇"},{"id":"370305107","parentId":"370305","areaCode":"370305107","name":"金岭镇"},{"id":"370323111","parentId":"370323","areaCode":"370323111","name":"燕崖镇"},{"id":"371122111","parentId":"371122","areaCode":"371122111","name":"浮来山镇"},{"id":"370190","parentId":"3701","areaCode":"370190","name":"济南市开发"},{"id":"370203011","parentId":"370203","areaCode":"370203011","name":"敦化路街道"},{"id":"370883109","parentId":"370883","areaCode":"370883109","name":"石墙镇"},{"id":"371421109","parentId":"371421","areaCode":"371421109","name":"义渡乡"},{"id":"371422109","parentId":"371422","areaCode":"371422109","name":"张大庄镇"},{"id":"371424108","parentId":"371424","areaCode":"371424108","name":"理合镇"},{"id":"371425109","parentId":"371425","areaCode":"371425109","name":"马集镇"},{"id":"371482","parentId":"3714","areaCode":"371482","name":"禹城市"},{"id":"371723109","parentId":"371723","areaCode":"371723109","name":"九女镇"},{"id":"371725109","parentId":"371725","areaCode":"371725109","name":"随官屯镇"},{"id":"371726109","parentId":"371726","areaCode":"371726109","name":"彭楼镇"},{"id":"3712","parentId":"37","areaCode":"3712","name":"莱芜市"},{"id":"371202108","parentId":"371202","areaCode":"371202108","name":"寨里镇"},{"id":"370502105","parentId":"370502","areaCode":"370502105","name":"龙居镇"},{"id":"370784121","parentId":"370784","areaCode":"370784121","name":"金冢子镇"},{"id":"370785","parentId":"3707","areaCode":"370785","name":"高密市"},{"id":"370681108","parentId":"370681","areaCode":"370681108","name":"石良镇"},{"id":"370686","parentId":"3706","areaCode":"370686","name":"栖霞市"},{"id":"370782117","parentId":"370782","areaCode":"370782117","name":"皇华镇"},{"id":"371202109","parentId":"371202","areaCode":"371202109","name":"杨庄镇"},{"id":"370786","parentId":"3707","areaCode":"370786","name":"昌邑市"},{"id":"370682107","parentId":"370682","areaCode":"370682107","name":"照旺庄镇"},{"id":"370683106","parentId":"370683","areaCode":"370683106","name":"驿道镇"},{"id":"370684109","parentId":"370684","areaCode":"370684109","name":"北沟镇"},{"id":"370685108","parentId":"370685","areaCode":"370685108","name":"夏甸镇"},{"id":"370687","parentId":"3706","areaCode":"370687","name":"海阳市"},{"id":"370826206","parentId":"370826","areaCode":"370826206","name":"高楼乡"},{"id":"371626111","parentId":"371626","areaCode":"371626111","name":"九户镇"},{"id":"371082104","parentId":"371082","areaCode":"371082104","name":"港西镇"},{"id":"371621112","parentId":"371621","areaCode":"371621112","name":"何坊镇"},{"id":"370687109","parentId":"370687","areaCode":"370687109","name":"辛安镇"},{"id":"370103017","parentId":"370103","areaCode":"370103017","name":"白马山街道"},{"id":"371623204","parentId":"371623","areaCode":"371623204","name":"佘家巷乡"},{"id":"370213012","parentId":"370213","areaCode":"370213012","name":"沧口街道"},{"id":"370686109","parentId":"370686","areaCode":"370686109","name":"杨础镇"},{"id":"370612109","parentId":"370612","areaCode":"370612109","name":"高陵镇"},{"id":"370831110","parentId":"370831","areaCode":"370831110","name":"高峪镇"},{"id":"370783111","parentId":"370783","areaCode":"370783111","name":"纪台镇"},{"id":"371625110","parentId":"371625","areaCode":"371625110","name":"乔庄镇"},{"id":"370830110","parentId":"370830","areaCode":"370830110","name":"郭仓镇"},{"id":"371426202","parentId":"371426","areaCode":"371426202","name":"三唐乡"},{"id":"371422201","parentId":"371422","areaCode":"371422201","name":"刘营伍乡"},{"id":"371425200","parentId":"371425","areaCode":"371425200","name":"华店乡"},{"id":"370828201","parentId":"370828","areaCode":"370828201","name":"卜集乡"},{"id":"370983112","parentId":"370983","areaCode":"370983112","name":"边院镇"},{"id":"3713","parentId":"37","areaCode":"3713","name":"临沂市"},{"id":"371302110","parentId":"371302","areaCode":"371302110","name":"方城镇"},{"id":"371321113","parentId":"371321","areaCode":"371321113","name":"苏村镇"},{"id":"371322203","parentId":"371322","areaCode":"371322203","name":"归昌乡"},{"id":"371324112","parentId":"371324","areaCode":"371324112","name":"庄坞镇"},{"id":"371325201","parentId":"371325","areaCode":"371325201","name":"南张庄乡"},{"id":"371326111","parentId":"371326","areaCode":"371326111","name":"白彦镇"},{"id":"371327201","parentId":"371327","areaCode":"371327201","name":"相沟乡"},{"id":"371391","parentId":"3713","areaCode":"371391","name":"临沂市高新"},{"id":"370481026","parentId":"370481","areaCode":"370481026","name":"龙阳镇"},{"id":"370282107","parentId":"370282","areaCode":"370282107","name":"灵山镇"},{"id":"370285","parentId":"3702","areaCode":"370285","name":"莱西市"},{"id":"370911109","parentId":"370911","areaCode":"370911109","name":"大汶口镇"},{"id":"370921201","parentId":"370921","areaCode":"370921201","name":"鹤山乡"},{"id":"370923206","parentId":"370923","areaCode":"370923206","name":"商老庄乡"},{"id":"370982111","parentId":"370982","areaCode":"370982111","name":"禹村镇 "},{"id":"370784122","parentId":"370784","areaCode":"370784122","name":"景芝镇"},{"id":"371081108","parentId":"371081","areaCode":"371081108","name":"小观镇"},{"id":"371083110","parentId":"371083","areaCode":"371083110","name":"崖子镇"},{"id":"370602012","parentId":"370602","areaCode":"370602012","name":"幸福街道"},{"id":"370681109","parentId":"370681","areaCode":"370681109","name":"兰高镇"},{"id":"370829207","parentId":"370829","areaCode":"370829207","name":"马集镇"},{"id":"370832211","parentId":"370832","areaCode":"370832211","name":"马营乡"},{"id":"370881204","parentId":"370881","areaCode":"370881204","name":"防山乡"},{"id":"371481107","parentId":"371481","areaCode":"371481107","name":"孔镇镇"},{"id":"371122112","parentId":"371122","areaCode":"371122112","name":"陵阳镇"},{"id":"370102012","parentId":"370102","areaCode":"370102012","name":"智远街道"},{"id":"370104012","parentId":"370104","areaCode":"370104012","name":"美里湖街道"},{"id":"370105014","parentId":"370105","areaCode":"370105014","name":"北园街道 "},{"id":"370112012","parentId":"370112","areaCode":"370112012","name":"港沟街道"},{"id":"370126207","parentId":"370126","areaCode":"370126207","name":"张坊乡"},{"id":"370181109","parentId":"370181","areaCode":"370181109","name":"文祖镇"},{"id":"370285107","parentId":"370285","areaCode":"370285107","name":"河头店镇"},{"id":"371323112","parentId":"371323","areaCode":"371323112","name":"高庄镇"},{"id":"371523207","parentId":"371523","areaCode":"371523207","name":"贾寨乡"},{"id":"371526109","parentId":"371526","areaCode":"371526109","name":"杨屯镇"},{"id":"371581109","parentId":"371581","areaCode":"371581109","name":"烟店镇"},{"id":"370303107","parentId":"370303","areaCode":"370303107","name":"房镇镇"},{"id":"371502106","parentId":"371502","areaCode":"371502106","name":"斗虎屯镇"},{"id":"371521111","parentId":"371521","areaCode":"371521111","name":"十五里元镇"},{"id":"371522109","parentId":"371522","areaCode":"371522109","name":"燕店镇"},{"id":"371525201","parentId":"371525","areaCode":"371525201","name":"梁堂乡"},{"id":"370302117","parentId":"370302","areaCode":"370302117","name":"太河镇"},{"id":"370305108","parentId":"370305","areaCode":"370305108","name":"金山镇"},{"id":"370323112","parentId":"370323","areaCode":"370323112","name":"石桥镇"},{"id":"371121202","parentId":"371121","areaCode":"371121202","name":"户部乡"},{"id":"370203012","parentId":"370203","areaCode":"370203012","name":"辽源路街道"},{"id":"370883","parentId":"3708","areaCode":"370883","name":"邹城市"},{"id":"370883110","parentId":"370883","areaCode":"370883110","name":"峄山镇"},{"id":"371421110","parentId":"371421","areaCode":"371421110","name":"丁庄乡"},{"id":"371424200","parentId":"371424","areaCode":"371424200","name":"宿安乡"},{"id":"371427109","parentId":"371427","areaCode":"371427109","name":"双庙镇"},{"id":"371498","parentId":"3714","areaCode":"371498","name":"运河经济开发区"},{"id":"371702104","parentId":"371702","areaCode":"371702104","name":"都司镇"},{"id":"371721109","parentId":"371721","areaCode":"371721109","name":"侯集回族镇"},{"id":"371722109","parentId":"371722","areaCode":"371722109","name":"李新庄镇"},{"id":"371723110","parentId":"371723","areaCode":"371723110","name":"党集镇"},{"id":"371724110","parentId":"371724","areaCode":"371724110","name":"太平镇"},{"id":"371725110","parentId":"371725","areaCode":"371725110","name":"张营镇"},{"id":"371726110","parentId":"371726","areaCode":"371726110","name":"凤凰镇"},{"id":"371727204","parentId":"371727","areaCode":"371727204","name":"杜堂乡"},{"id":"371728203","parentId":"371728","areaCode":"371728203","name":"沙窝镇"},{"id":"370781115","parentId":"370781","areaCode":"370781115","name":"谭坊镇"},{"id":"370831205","parentId":"370831","areaCode":"370831205","name":"大黄沟乡"},{"id":"370832215","parentId":"370832","areaCode":"370832215","name":"赵固堆乡"},{"id":"371581110","parentId":"371581","areaCode":"371581110","name":"唐园镇"},{"id":"370282108","parentId":"370282","areaCode":"370282108","name":"七级中心社区"},{"id":"371481108","parentId":"371481","areaCode":"371481108","name":"铁营镇"},{"id":"371421202","parentId":"371421","areaCode":"371421202","name":"于集乡"},{"id":"371425201","parentId":"371425","areaCode":"371425201","name":"安头乡"},{"id":"371324113","parentId":"371324","areaCode":"371324113","name":"矿坑镇"},{"id":"370686110","parentId":"370686","areaCode":"370686110","name":"西城镇"},{"id":"371522110","parentId":"371522","areaCode":"371522110","name":"董杜庄镇"},{"id":"370828203","parentId":"370828","areaCode":"370828203","name":"兴隆乡"},{"id":"370829208","parentId":"370829","areaCode":"370829208","name":"满硐乡"},{"id":"370830202","parentId":"370830","areaCode":"370830202","name":"刘楼乡"},{"id":"370983113","parentId":"370983","areaCode":"370983113","name":"汶阳镇"},{"id":"371302401","parentId":"371302","areaCode":"371302401","name":"工业园"},{"id":"371321114","parentId":"371321","areaCode":"371321114","name":"铜井镇"},{"id":"371323113","parentId":"371323","areaCode":"371323113","name":"道托镇"},{"id":"371326112","parentId":"371326","areaCode":"371326112","name":"临涧镇"},{"id":"371393","parentId":"3713","areaCode":"371393","name":"临港产业区"},{"id":"370323302","parentId":"370323","areaCode":"370323302","name":"开发区"},{"id":"370481027","parentId":"370481","areaCode":"370481027","name":"木石镇"},{"id":"370281108","parentId":"370281","areaCode":"370281108","name":"里岔镇"},{"id":"370283108","parentId":"370283","areaCode":"370283108","name":"蓼兰镇"},{"id":"370284110","parentId":"370284","areaCode":"370284110","name":"张家楼镇"},{"id":"370285108","parentId":"370285","areaCode":"370285108","name":"店埠镇"},{"id":"370911110","parentId":"370911","areaCode":"370911110","name":"马庄镇"},{"id":"370921206","parentId":"370921","areaCode":"370921206","name":"乡饮乡"},{"id":"370790","parentId":"3707","areaCode":"370790","name":"高新技术开"},{"id":"371621113","parentId":"371621","areaCode":"371621113","name":"辛店镇"},{"id":"370682108","parentId":"370682","areaCode":"370682108","name":"谭格庄镇"},{"id":"370683107","parentId":"370683","areaCode":"370683107","name":"程郭镇"},{"id":"370883111","parentId":"370883","areaCode":"370883111","name":"看庄镇"},{"id":"371499","parentId":"3714","areaCode":"371499","name":"德州经济技术开发区"},{"id":"370102013","parentId":"370102","areaCode":"370102013","name":"龙洞街道"},{"id":"370103018","parentId":"370103","areaCode":"370103018","name":"七贤街道"},{"id":"370104100","parentId":"370104","areaCode":"370104100","name":"吴家堡镇 "},{"id":"370105015","parentId":"370105","areaCode":"370105015","name":"泺口街道 "},{"id":"370112013","parentId":"370112","areaCode":"370112013","name":"遥墙街道"},{"id":"370181110","parentId":"370181","areaCode":"370181110","name":"刁镇 "},{"id":"370923207","parentId":"370923","areaCode":"370923207","name":"戴庙镇"},{"id":"370982112","parentId":"370982","areaCode":"370982112","name":"宫里镇"},{"id":"371525202","parentId":"371525","areaCode":"371525202","name":"定远寨乡"},{"id":"371702105","parentId":"371702","areaCode":"371702105","name":"高庄镇"},{"id":"371502108","parentId":"371502","areaCode":"371502108","name":"张炉集镇"},{"id":"371521112","parentId":"371521","areaCode":"371521112","name":"定水镇"},{"id":"371523208","parentId":"371523","areaCode":"371523208","name":"杨官屯乡"},{"id":"370302118","parentId":"370302","areaCode":"370302118","name":"寨里镇"},{"id":"371122113","parentId":"371122","areaCode":"371122113","name":"店子集镇"},{"id":"370890","parentId":"3708","areaCode":"370890","name":"济宁市高新"},{"id":"3714","parentId":"37","areaCode":"3714","name":"德州市"},{"id":"371427200","parentId":"371427","areaCode":"371427200","name":"渡口驿乡"},{"id":"371722110","parentId":"371722","areaCode":"371722110","name":"浮岗镇"},{"id":"371723111","parentId":"371723","areaCode":"371723111","name":"张楼镇"},{"id":"371724111","parentId":"371724","areaCode":"371724111","name":"万丰镇"},{"id":"371725111","parentId":"371725","areaCode":"371725111","name":"潘渡镇"},{"id":"371726111","parentId":"371726","areaCode":"371726111","name":"郑营镇"},{"id":"370783112","parentId":"370783","areaCode":"370783112","name":"稻田镇"},{"id":"371202110","parentId":"371202","areaCode":"371202110","name":"茶业口镇"},{"id":"370681110","parentId":"370681","areaCode":"370681110","name":"诸由观镇"},{"id":"370685109","parentId":"370685","areaCode":"370685109","name":"阜山镇"},{"id":"370687110","parentId":"370687","areaCode":"370687110","name":"二十里店镇"},{"id":"370690","parentId":"3706","areaCode":"370690","name":"开发区"},{"id":"370826207","parentId":"370826","areaCode":"370826207","name":"张楼乡"},{"id":"371626112","parentId":"371626","areaCode":"371626112","name":"青阳镇"},{"id":"371081109","parentId":"371081","areaCode":"371081109","name":"葛家镇"},{"id":"371083111","parentId":"371083","areaCode":"371083111","name":"诸往镇"},{"id":"370602401","parentId":"370602","areaCode":"370602401","name":"卧龙管委"},{"id":"370782118","parentId":"370782","areaCode":"370782118","name":"桃林镇"},{"id":"371322205","parentId":"371322","areaCode":"371322205","name":"泉源乡"},{"id":"371082105","parentId":"371082","areaCode":"371082105","name":"夏庄镇"},{"id":"371327202","parentId":"371327","areaCode":"371327202","name":"经济开发区"},{"id":"370213013","parentId":"370213","areaCode":"370213013","name":"世园街道"},{"id":"371426003","parentId":"371426","areaCode":"371426003","name":"开发区"},{"id":"371728204","parentId":"371728","areaCode":"371728204","name":"长兴集乡"},{"id":"370612110","parentId":"370612","areaCode":"370612110","name":"王格庄镇"},{"id":"371721110","parentId":"371721","areaCode":"371721110","name":"苏集镇"},{"id":"370291","parentId":"3702","areaCode":"370291","name":"高新区"},{"id":"371702106","parentId":"371702","areaCode":"371702106","name":"小留镇"},{"id":"370983114","parentId":"370983","areaCode":"370983114","name":"仪阳镇"},{"id":"371721111","parentId":"371721","areaCode":"371721111","name":"孙老家镇"},{"id":"371722111","parentId":"371722","areaCode":"371722111","name":"莱河镇"},{"id":"371728205","parentId":"371728","areaCode":"371728205","name":"焦园乡"},{"id":"370112101","parentId":"370112","areaCode":"370112101","name":"仲宫镇 "},{"id":"370181111","parentId":"370181","areaCode":"370181111","name":"曹范镇"},{"id":"370281110","parentId":"370281","areaCode":"370281110","name":"胶西镇"},{"id":"370282110","parentId":"370282","areaCode":"370282110","name":"田横镇"},{"id":"370283109","parentId":"370283","areaCode":"370283109","name":"崔家集镇"},{"id":"370923208","parentId":"370923","areaCode":"370923208","name":"旧县乡"},{"id":"370982113","parentId":"370982","areaCode":"370982113","name":"谷里镇"},{"id":"370783115","parentId":"370783","areaCode":"370783115","name":"羊口镇"},{"id":"370791","parentId":"3707","areaCode":"370791","name":"滨海经济开"},{"id":"370830204","parentId":"370830","areaCode":"370830204","name":"杨店乡"},{"id":"370103019","parentId":"370103","areaCode":"370103019","name":"党家街道"},{"id":"370105101","parentId":"370105","areaCode":"370105101","name":"天桥区桑梓店镇"},{"id":"370284112","parentId":"370284","areaCode":"370284112","name":"海青镇"},{"id":"370911111","parentId":"370911","areaCode":"370911111","name":"房村镇"},{"id":"371326113","parentId":"371326","areaCode":"371326113","name":"丰阳镇"},{"id":"371398","parentId":"3713","areaCode":"371398","name":"临沂市经济"},{"id":"371522111","parentId":"371522","areaCode":"371522111","name":"王奉镇"},{"id":"370302119","parentId":"370302","areaCode":"370302119","name":"昆仑镇"},{"id":"3715","parentId":"37","areaCode":"3715","name":"聊城市"},{"id":"371502109","parentId":"371502","areaCode":"371502109","name":"于集镇"},{"id":"371521113","parentId":"371521","areaCode":"371521113","name":"西湖镇"},{"id":"371523209","parentId":"371523","areaCode":"371523209","name":"洪官屯乡"},{"id":"371525203","parentId":"371525","areaCode":"371525203","name":"辛集乡"},{"id":"371581111","parentId":"371581","areaCode":"371581111","name":"金郝庄镇"},{"id":"370883112","parentId":"370883","areaCode":"370883112","name":"张庄镇"},{"id":"370891","parentId":"3708","areaCode":"370891","name":"北湖度假区"},{"id":"371427204","parentId":"371427","areaCode":"371427204","name":"田庄乡"},{"id":"371481200","parentId":"371481","areaCode":"371481200","name":"西段乡"},{"id":"370681401","parentId":"370681","areaCode":"370681401","name":"经济技术开发区"},{"id":"370682110","parentId":"370682","areaCode":"370682110","name":"河洛镇"},{"id":"370691","parentId":"3706","areaCode":"370691","name":"高新区"},{"id":"370826209","parentId":"370826","areaCode":"370826209","name":"赵庙乡"},{"id":"371626113","parentId":"371626","areaCode":"371626113","name":"明集镇"},{"id":"371081110","parentId":"371081","areaCode":"371081110","name":"米山镇"},{"id":"371082106","parentId":"371082","areaCode":"371082106","name":"崖西镇"},{"id":"371083112","parentId":"371083","areaCode":"371083112","name":"乳山寨镇"},{"id":"371621114","parentId":"371621","areaCode":"371621114","name":"大年陈镇"},{"id":"371324114","parentId":"371324","areaCode":"371324114","name":"鲁城镇"},{"id":"371723400","parentId":"371723","areaCode":"371723400","name":"开发区"},{"id":"371323114","parentId":"371323","areaCode":"371323114","name":"龙家圈镇"},{"id":"371321115","parentId":"371321","areaCode":"371321115","name":"依汶镇"},{"id":"371122114","parentId":"371122","areaCode":"371122114","name":"长岭镇"},{"id":"370686111","parentId":"370686","areaCode":"370686111","name":"官道镇"},{"id":"370832217","parentId":"370832","areaCode":"370832217","name":"大路口乡"},{"id":"371202111","parentId":"371202","areaCode":"371202111","name":"和庄镇"},{"id":"370683108","parentId":"370683","areaCode":"370683108","name":"虎头崖镇"},{"id":"370829209","parentId":"370829","areaCode":"370829209","name":"仲山乡"},{"id":"371322206","parentId":"371322","areaCode":"371322206","name":"新村银杏产业开发区"},{"id":"371425203","parentId":"371425","areaCode":"371425203","name":"刘桥乡"},{"id":"371623203","parentId":"371623","areaCode":"371623203","name":"西小王乡"},{"id":"370687112","parentId":"370687","areaCode":"370687112","name":"朱吴镇"},{"id":"370685110","parentId":"370685","areaCode":"370685110","name":"齐山镇"},{"id":"370481028","parentId":"370481","areaCode":"370481028","name":"南沙河镇"},{"id":"371726200","parentId":"371726","areaCode":"371726200","name":"左营乡"},{"id":"371724112","parentId":"371724","areaCode":"371724112","name":"陶庙镇"},{"id":"371725112","parentId":"371725","areaCode":"371725112","name":"双桥镇"},{"id":"371321201","parentId":"371321","areaCode":"371321201","name":"马牧池乡"},{"id":"370481029","parentId":"370481","areaCode":"370481029","name":"西岗镇"},{"id":"370281111","parentId":"370281","areaCode":"370281111","name":"洋河镇"},{"id":"370284113","parentId":"370284","areaCode":"370284113","name":"宝山镇"},{"id":"370911112","parentId":"370911","areaCode":"370911112","name":"良庄镇"},{"id":"370982114","parentId":"370982","areaCode":"370982114","name":"石莱镇"},{"id":"370793","parentId":"3707","areaCode":"370793","name":"峡山生态经"},{"id":"371081111","parentId":"371081","areaCode":"371081111","name":"界石镇"},{"id":"3716","parentId":"37","areaCode":"3716","name":"滨州市"},{"id":"370829210","parentId":"370829","areaCode":"370829210","name":"孟姑集镇"},{"id":"371481201","parentId":"371481","areaCode":"371481201","name":"大孙乡"},{"id":"370103020","parentId":"370103","areaCode":"370103020","name":"陡沟街道 "},{"id":"370105102","parentId":"370105","areaCode":"370105102","name":"天桥区大桥镇 "},{"id":"370112103","parentId":"370112","areaCode":"370112103","name":"柳埠镇 "},{"id":"370283110","parentId":"370283","areaCode":"370283110","name":"明村镇"},{"id":"371323115","parentId":"371323","areaCode":"371323115","name":"泉庄镇"},{"id":"371581112","parentId":"371581","areaCode":"371581112","name":"戴湾镇"},{"id":"371083113","parentId":"371083","areaCode":"371083113","name":"徐家镇"},{"id":"371502110","parentId":"371502","areaCode":"371502110","name":"郑家镇"},{"id":"371521114","parentId":"371521","areaCode":"371521114","name":"郭屯镇"},{"id":"371522112","parentId":"371522","areaCode":"371522112","name":"樱桃园镇"},{"id":"371525204","parentId":"371525","areaCode":"371525204","name":"范寨乡"},{"id":"370883113","parentId":"370883","areaCode":"370883113","name":"田黄镇"},{"id":"371425204","parentId":"371425","areaCode":"371425204","name":"大黄乡"},{"id":"371702107","parentId":"371702","areaCode":"371702107","name":"李村镇"},{"id":"371721112","parentId":"371721","areaCode":"371721112","name":"阎店楼镇"},{"id":"371725113","parentId":"371725","areaCode":"371725113","name":"南赵楼镇"},{"id":"371726201","parentId":"371726","areaCode":"371726201","name":"大埝镇"},{"id":"370682111","parentId":"370682","areaCode":"370682111","name":"吕格庄镇"},{"id":"370683109","parentId":"370683","areaCode":"370683109","name":"柞村镇"},{"id":"370687401","parentId":"370687","areaCode":"370687401","name":"经济开发区"},{"id":"370826210","parentId":"370826","areaCode":"370826210","name":"西平乡"},{"id":"371626114","parentId":"371626","areaCode":"371626114","name":"台子镇"},{"id":"371082107","parentId":"371082","areaCode":"371082107","name":"荫子镇"},{"id":"371621204","parentId":"371621","areaCode":"371621204","name":"皂户李乡"},{"id":"371722112","parentId":"371722","areaCode":"371722112","name":"时楼镇"},{"id":"371324115","parentId":"371324","areaCode":"371324115","name":"芦柞镇"},{"id":"370181113","parentId":"370181","areaCode":"370181113","name":"白云湖镇"},{"id":"370104013","parentId":"370104","areaCode":"370104013","name":"兴福街道办事处"},{"id":"370686113","parentId":"370686","areaCode":"370686113","name":"庙后镇"},{"id":"371122115","parentId":"371122","areaCode":"371122115","name":"安庄镇"},{"id":"370681415","parentId":"370681","areaCode":"370681415","name":"滨海旅游度假区"},{"id":"370983501","parentId":"370983","areaCode":"370983501","name":"肥城高新技术开发区"},{"id":"370692","parentId":"3706","areaCode":"370692","name":"昆嵛山保护区"},{"id":"371724113","parentId":"371724","areaCode":"371724113","name":"董官屯镇"},{"id":"370282112","parentId":"370282","areaCode":"370282112","name":"丰城中心社区"},{"id":"371326000","parentId":"371326","areaCode":"371326000","name":"开发区"},{"id":"370203015","parentId":"370203","areaCode":"370203015","name":"合肥路街道"},{"id":"370830205","parentId":"370830","areaCode":"370830205","name":"军屯乡"},{"id":"371324116","parentId":"371324","areaCode":"371324116","name":"金岭镇"},{"id":"370281112","parentId":"370281","areaCode":"370281112","name":"九龙街道"},{"id":"370284115","parentId":"370284","areaCode":"370284115","name":"藏南镇"},{"id":"370285116","parentId":"370285","areaCode":"370285116","name":"马连庄镇"},{"id":"370911200","parentId":"370911","areaCode":"370911200","name":"下港乡"},{"id":"371082108","parentId":"371082","areaCode":"371082108","name":"滕家镇"},{"id":"370682112","parentId":"370682","areaCode":"370682112","name":"高格庄镇"},{"id":"370883114","parentId":"370883","areaCode":"370883114","name":"郭里镇"},{"id":"3717","parentId":"37","areaCode":"3717","name":"菏泽市"},{"id":"370103021","parentId":"370103","areaCode":"370103021","name":"十六里河街道 "},{"id":"370181114","parentId":"370181","areaCode":"370181114","name":"高官寨镇"},{"id":"370982115","parentId":"370982","areaCode":"370982115","name":"放城镇"},{"id":"371525205","parentId":"371525","areaCode":"371525205","name":"甘官屯乡"},{"id":"370481032","parentId":"370481","areaCode":"370481032","name":"羊庄镇"},{"id":"371521203","parentId":"371521","areaCode":"371521203","name":"大布乡"},{"id":"371522113","parentId":"371522","areaCode":"371522113","name":"河店镇"},{"id":"371581113","parentId":"371581","areaCode":"371581113","name":"尚店镇"},{"id":"371122116","parentId":"371122","areaCode":"371122116","name":"洛河镇"},{"id":"370203016","parentId":"370203","areaCode":"370203016","name":"浮山新区街道"},{"id":"371481203","parentId":"371481","areaCode":"371481203","name":"寨头堡乡"},{"id":"371702108","parentId":"371702","areaCode":"371702108","name":"马岭岗镇"},{"id":"371721113","parentId":"371721","areaCode":"371721113","name":"梁堤头镇"},{"id":"371722113","parentId":"371722","areaCode":"371722113","name":"杨楼镇"},{"id":"371725114","parentId":"371725","areaCode":"371725114","name":"黄堆集镇"},{"id":"371726202","parentId":"371726","areaCode":"371726202","name":"引马镇"},{"id":"371626115","parentId":"371626","areaCode":"371626115","name":"码头镇"},{"id":"371321000","parentId":"371321","areaCode":"371321000","name":"开发区"},{"id":"370681601","parentId":"370681","areaCode":"370681601","name":"高新区"},{"id":"370687402","parentId":"370687","areaCode":"370687402","name":"碧城工业区"},{"id":"370794","parentId":"3707","areaCode":"370794","name":"经济开发区"},{"id":"370829211","parentId":"370829","areaCode":"370829211","name":"开发区"},{"id":"371081401","parentId":"371081","areaCode":"371081401","name":"开发区街道办事"},{"id":"370282115","parentId":"370282","areaCode":"370282115","name":"段泊岚镇"},{"id":"371724114","parentId":"371724","areaCode":"371724114","name":"田桥镇"},{"id":"370683110","parentId":"370683","areaCode":"370683110","name":"夏邱镇"},{"id":"371323116","parentId":"371323","areaCode":"371323116","name":"富官庄镇"},{"id":"370104014","parentId":"370104","areaCode":"370104014","name":"腊山街道"},{"id":"370112106","parentId":"370112","areaCode":"370112106","name":"董家镇"},{"id":"371502112","parentId":"371502","areaCode":"371502112","name":"朱老庄镇"},{"id":"371702109","parentId":"371702","areaCode":"371702109","name":"安兴镇"},{"id":"370481033","parentId":"370481","areaCode":"370481033","name":"张汪镇"},{"id":"370282117","parentId":"370282","areaCode":"370282117","name":"移风店镇"},{"id":"370982116","parentId":"370982","areaCode":"370982116","name":"刘杜镇"},{"id":"370112107","parentId":"370112","areaCode":"370112107","name":"唐王镇"},{"id":"370911201","parentId":"370911","areaCode":"370911201","name":"化马湾乡"},{"id":"371324202","parentId":"371324","areaCode":"371324202","name":"下村乡"},{"id":"371522114","parentId":"371522","areaCode":"371522114","name":"妹冢镇"},{"id":"371521206","parentId":"371521","areaCode":"371521206","name":"高庙王乡"},{"id":"371122117","parentId":"371122","areaCode":"371122117","name":"棋山镇"},{"id":"371724115","parentId":"371724","areaCode":"371724115","name":"营里镇"},{"id":"371726207","parentId":"371726","areaCode":"371726207","name":"富春乡"},{"id":"370682113","parentId":"370682","areaCode":"370682113","name":"大夼镇"},{"id":"371722114","parentId":"371722","areaCode":"371722114","name":"张集镇"},{"id":"371721114","parentId":"371721","areaCode":"371721114","name":"安蔡楼镇"},{"id":"370687403","parentId":"370687","areaCode":"370687403","name":"旅游度假区"},{"id":"370203018","parentId":"370203","areaCode":"370203018","name":"阜新路街道"},{"id":"370103022","parentId":"370103","areaCode":"370103022","name":"兴隆街道 "},{"id":"370181115","parentId":"370181","areaCode":"370181115","name":"宁家埠镇"},{"id":"371481005","parentId":"371481","areaCode":"371481005","name":"西城街道"},{"id":"371525206","parentId":"371525","areaCode":"371525206","name":"兰沃乡"},{"id":"371082109","parentId":"371082","areaCode":"371082109","name":"大疃镇"},{"id":"370104015","parentId":"370104","areaCode":"370104015","name":"玉清湖街道"},{"id":"371725201","parentId":"371725","areaCode":"371725201","name":"唐庙镇"},{"id":"370683111","parentId":"370683","areaCode":"370683111","name":"土山镇"},{"id":"371323117","parentId":"371323","areaCode":"371323117","name":"院东头镇"},{"id":"370481034","parentId":"370481","areaCode":"370481034","name":"北辛街道"},{"id":"370281114","parentId":"370281","areaCode":"370281114","name":"胶北街道"},{"id":"370982117","parentId":"370982","areaCode":"370982117","name":"汶南镇"},{"id":"371122118","parentId":"371122","areaCode":"371122118","name":"寨里河镇"},{"id":"370181116","parentId":"370181","areaCode":"370181116","name":"官庄镇 "},{"id":"370283113","parentId":"370283","areaCode":"370283113","name":"田庄镇"},{"id":"371323201","parentId":"371323","areaCode":"371323201","name":"圈里乡"},{"id":"371522115","parentId":"371522","areaCode":"371522115","name":"位庄镇"},{"id":"371525209","parentId":"371525","areaCode":"371525209","name":"万善乡"},{"id":"371721115","parentId":"371721","areaCode":"371721115","name":"邵庄镇"},{"id":"371725205","parentId":"371725","areaCode":"371725205","name":"黄集乡"},{"id":"371082110","parentId":"371082","areaCode":"371082110","name":"上庄镇"},{"id":"370112111","parentId":"370112","areaCode":"370112111","name":"西营镇"},{"id":"370687404","parentId":"370687","areaCode":"370687404","name":"核电装备制造工业园区"},{"id":"370203019","parentId":"370203","areaCode":"370203019","name":"海伦路街道"},{"id":"370282118","parentId":"370282","areaCode":"370282118","name":"普东中心社区"},{"id":"370682114","parentId":"370682","areaCode":"370682114","name":"山前店镇"},{"id":"371324000","parentId":"371324","areaCode":"371324000","name":"开发区"},{"id":"371722115","parentId":"371722","areaCode":"371722115","name":"龙王庙镇"},{"id":"371702110","parentId":"371702","areaCode":"371702110","name":"大黄集镇"},{"id":"371521207","parentId":"371521","areaCode":"371521207","name":"金斗营乡"},{"id":"370481035","parentId":"370481","areaCode":"370481035","name":"荆河街道"},{"id":"370282119","parentId":"370282","areaCode":"370282119","name":"大信镇"},{"id":"371082111","parentId":"371082","areaCode":"371082111","name":"虎山镇"},{"id":"370982119","parentId":"370982","areaCode":"370982119","name":"龙廷镇"},{"id":"371522116","parentId":"371522","areaCode":"371522116","name":"张寨镇"},{"id":"370181117","parentId":"370181","areaCode":"370181117","name":"辛寨镇 "},{"id":"371702111","parentId":"371702","areaCode":"371702111","name":"吕陵镇"},{"id":"371722116","parentId":"371722","areaCode":"371722116","name":"谢集镇"},{"id":"371721116","parentId":"371721","areaCode":"371721116","name":"王集镇"},{"id":"370112112","parentId":"370112","areaCode":"370112112","name":"彩石镇 "},{"id":"370203020","parentId":"370203","areaCode":"370203020","name":"四方街道"},{"id":"371122119","parentId":"371122","areaCode":"371122119","name":"桑园镇"},{"id":"371323118","parentId":"371323","areaCode":"371323118","name":"经济开发区"},{"id":"371725206","parentId":"371725","areaCode":"371725206","name":"李集乡"},{"id":"371721117","parentId":"371721","areaCode":"371721117","name":"郑庄镇"},{"id":"371722117","parentId":"371722","areaCode":"371722117","name":"李田楼镇"},{"id":"370181118","parentId":"370181","areaCode":"370181118","name":"黄河镇 "},{"id":"370481036","parentId":"370481","areaCode":"370481036","name":"龙泉街道"},{"id":"370982203","parentId":"370982","areaCode":"370982203","name":"岳家庄乡"},{"id":"371522117","parentId":"371522","areaCode":"371522117","name":"大王寨镇"},{"id":"371122204","parentId":"371122","areaCode":"371122204","name":"果庄乡"},{"id":"371725207","parentId":"371725","areaCode":"371725207","name":"张鲁集乡"},{"id":"371082112","parentId":"371082","areaCode":"371082112","name":"人和镇"},{"id":"370284119","parentId":"370284","areaCode":"370284119","name":"临港经济区"},{"id":"370112102","parentId":"370112","areaCode":"370112102","name":"锦绣川办事处"},{"id":"370203021","parentId":"370203","areaCode":"370203021","name":"兴隆路街道"},{"id":"370282121","parentId":"370282","areaCode":"370282121","name":"田横岛旅游度假区"},{"id":"370499023","parentId":"370499","areaCode":"370499023","name":"兴城街道"},{"id":"371702112","parentId":"371702","areaCode":"371702112","name":"胡集镇"},{"id":"370481037","parentId":"370481","areaCode":"370481037","name":"善南街道"},{"id":"370112104","parentId":"370112","areaCode":"370112104","name":"高而办事处"},{"id":"371122206","parentId":"371122","areaCode":"371122206","name":"库山乡"},{"id":"370283116","parentId":"370283","areaCode":"370283116","name":"新河镇"},{"id":"370499024","parentId":"370499","areaCode":"370499024","name":"张范街道"},{"id":"371522207","parentId":"371522","areaCode":"371522207","name":"俎店乡"},{"id":"371702202","parentId":"371702","areaCode":"371702202","name":"皇镇乡"},{"id":"371721118","parentId":"371721","areaCode":"371721118","name":"青岗集镇"},{"id":"371725208","parentId":"371725","areaCode":"371725208","name":"水堡乡"},{"id":"370203022","parentId":"370203","areaCode":"370203022","name":"水清沟街道"},{"id":"370282122","parentId":"370282","areaCode":"370282122","name":"金口镇"},{"id":"370284010","parentId":"370284","areaCode":"370284010","name":"胶河经济区"},{"id":"371722201","parentId":"371722","areaCode":"371722201","name":"高老家乡"},{"id":"370282123","parentId":"370282","areaCode":"370282123","name":"省级高新区"},{"id":"371082009","parentId":"371082","areaCode":"371082009","name":"崂山街道"},{"id":"371522210","parentId":"371522","areaCode":"371522210","name":"徐庄乡"},{"id":"371721201","parentId":"371721","areaCode":"371721201","name":"常乐集乡"},{"id":"370203023","parentId":"370203","areaCode":"370203023","name":"洛阳路街道"},{"id":"371725209","parentId":"371725","areaCode":"371725209","name":"陈坡乡"},{"id":"371722202","parentId":"371722","areaCode":"371722202","name":"曹庄乡"},{"id":"371721202","parentId":"371721","areaCode":"371721202","name":"倪集镇"},{"id":"371082010","parentId":"371082","areaCode":"371082010","name":"城西街道"},{"id":"371522212","parentId":"371522","areaCode":"371522212","name":"王庄集乡"},{"id":"370203024","parentId":"370203","areaCode":"370203024","name":"河西街道"},{"id":"370282124","parentId":"370282","areaCode":"370282124","name":"南泉中心社区"},{"id":"370284012","parentId":"370284","areaCode":"370284012","name":"琅琊台旅游度假区"},{"id":"370283119","parentId":"370283","areaCode":"370283119","name":"店子镇"},{"id":"371522214","parentId":"371522","areaCode":"371522214","name":"柿子园乡"},{"id":"371721203","parentId":"371721","areaCode":"371721203","name":"楼庄乡"},{"id":"370282125","parentId":"370282","areaCode":"370282125","name":"通济新经济区"},{"id":"370284025","parentId":"370284","areaCode":"370284025","name":"胶南街道"},{"id":"370283120","parentId":"370283","areaCode":"370283120","name":"大泽山镇"},{"id":"371721206","parentId":"371721","areaCode":"371721206","name":"大集乡"},{"id":"370284026","parentId":"370284","areaCode":"370284026","name":"黄岛街道"},{"id":"371721207","parentId":"371721","areaCode":"371721207","name":"朱洪庙乡"},{"id":"370284027","parentId":"370284","areaCode":"370284027","name":"红石崖街道"},{"id":"370283122","parentId":"370283","areaCode":"370283122","name":"旧店镇"},{"id":"370284028","parentId":"370284","areaCode":"370284028","name":"辛安街道"},{"id":"371721208","parentId":"371721","areaCode":"371721208","name":"仵楼乡"},{"id":"370284029","parentId":"370284","areaCode":"370284029","name":"薛家岛街道"},{"id":"370283124","parentId":"370283","areaCode":"370283124","name":"云山镇"},{"id":"370284030","parentId":"370284","areaCode":"370284030","name":"灵珠山街道"},{"id":"370284031","parentId":"370284","areaCode":"370284031","name":"长江路街道"},{"id":"370283401","parentId":"370283","areaCode":"370283401","name":"开发区街道办事"},{"id":"370284032","parentId":"370284","areaCode":"370284032","name":"灵山卫街道"},{"id":"370284033","parentId":"370284","areaCode":"370284033","name":"王台镇"},{"id":"370284034","parentId":"370284","areaCode":"370284034","name":"积米崖港区"}]
}
